{
  "type": "FeatureCollection",
  "features": [
    {
      "type": "Feature",
      "geometry": {
        "type": "LineString",
        "coordinates": [
          [
            16.01882,
            45.814549
          ],
          [
            16.018643,
            45.81458
          ],
          [
            16.018509,
            45.81458
          ],
          [
            16.018266,
            45.814535
          ],
          [
            16.017886,
            45.814465
          ],
          [
            16.017324,
            45.814375
          ],
          [
            16.017156,
            45.814398
          ],
          [
            16.01658,
            45.814627
          ],
          [
            16.015828,
            45.814888
          ],
          [
            16.014573,
            45.815179
          ],
          [
            16.013487,
            45.81535
          ],
          [
            16.01333,
            45.815404
          ],
          [
            16.01333,
            45.815404
          ],
          [
            16.013338,
            45.81539
          ],
          [
            16.013223,
            45.815406
          ],
          [
            16.012048,
            45.815466
          ],
          [
            16.011152,
            45.815467
          ],
          [
            16.01103,
            45.815464
          ],
          [
            16.01053,
            45.815443
          ],
          [
            16.010242,
            45.815418
          ],
          [
            16.010104,
            45.815405
          ],
          [
            16.009812,
            45.815374
          ],
          [
            16.009611,
            45.815324
          ],
          [
            16.009164,
            45.815212
          ],
          [
            16.008614,
            45.815022
          ],
          [
            16.008614,
            45.815022
          ],
          [
            16.007581,
            45.814523
          ],
          [
            16.006391,
            45.813981
          ],
          [
            16.005134,
            45.813481
          ],
          [
            16.004745,
            45.81334
          ],
          [
            16.004745,
            45.81334
          ],
          [
            16.003732,
            45.812949
          ],
          [
            16.002609,
            45.812541
          ],
          [
            16.000421,
            45.811839
          ],
          [
            15.999339,
            45.811529
          ],
          [
            15.999339,
            45.811529
          ],
          [
            15.99863,
            45.811348
          ],
          [
            15.997723,
            45.81113
          ],
          [
            15.997723,
            45.81113
          ],
          [
            15.996157,
            45.810809
          ],
          [
            15.995434,
            45.810676
          ],
          [
            15.993893,
            45.810442
          ],
          [
            15.992893,
            45.810315
          ],
          [
            15.992276,
            45.810265
          ],
          [
            15.992276,
            45.810265
          ],
          [
            15.991956,
            45.810225
          ],
          [
            15.990913,
            45.810136
          ],
          [
            15.989849,
            45.81007
          ],
          [
            15.989068,
            45.810049
          ],
          [
            15.988361,
            45.810017
          ],
          [
            15.988361,
            45.810017
          ],
          [
            15.988202,
            45.81002
          ],
          [
            15.988111,
            45.810071
          ],
          [
            15.988065,
            45.810097
          ],
          [
            15.988049,
            45.810177
          ],
          [
            15.988037,
            45.810276
          ],
          [
            15.988021,
            45.810357
          ],
          [
            15.987989,
            45.810432
          ],
          [
            15.987888,
            45.810498
          ],
          [
            15.987623,
            45.810509
          ],
          [
            15.986838,
            45.810482
          ],
          [
            15.98646,
            45.810463
          ],
          [
            15.985386,
            45.811092
          ],
          [
            15.984231,
            45.811805
          ],
          [
            15.984231,
            45.811805
          ],
          [
            15.983662,
            45.81215
          ],
          [
            15.98347,
            45.812183
          ],
          [
            15.982722,
            45.812228
          ],
          [
            15.981342,
            45.812316
          ],
          [
            15.979626,
            45.812444
          ],
          [
            15.979267,
            45.812449
          ],
          [
            15.978928,
            45.812482
          ],
          [
            15.978714,
            45.812525
          ],
          [
            15.978297,
            45.812655
          ],
          [
            15.978223,
            45.812672
          ],
          [
            15.977366,
            45.812901
          ],
          [
            15.976493,
            45.813035
          ],
          [
            15.976546,
            45.813027
          ],
          [
            15.976611,
            45.813013
          ],
          [
            15.976611,
            45.813013
          ],
          [
            15.976505,
            45.813027
          ],
          [
            15.976443,
            45.813042
          ],
          [
            15.976051,
            45.81307
          ],
          [
            15.974621,
            45.813081
          ],
          [
            15.97311,
            45.813174
          ],
          [
            15.972112,
            45.813195
          ],
          [
            15.970096,
            45.8133
          ],
          [
            15.96979,
            45.813303
          ],
          [
            15.969678,
            45.813247
          ],
          [
            15.969624,
            45.813197
          ],
          [
            15.969588,
            45.813078
          ],
          [
            15.969484,
            45.812489
          ],
          [
            15.969474,
            45.812489
          ],
          [
            15.969386,
            45.811841
          ],
          [
            15.968867,
            45.809333
          ],
          [
            15.968878,
            45.809335
          ],
          [
            15.96879,
            45.80912
          ],
          [
            15.966744,
            45.80612
          ],
          [
            15.966604,
            45.805964
          ],
          [
            15.966604,
            45.805964
          ],
          [
            15.966616,
            45.805956
          ],
          [
            15.966487,
            45.805747
          ],
          [
            15.964541,
            45.802896
          ],
          [
            15.964327,
            45.802581
          ],
          [
            15.964203,
            45.80243
          ],
          [
            15.964208,
            45.802432
          ],
          [
            15.964136,
            45.80229
          ],
          [
            15.961705,
            45.798715
          ],
          [
            15.961709,
            45.798714
          ],
          [
            15.961127,
            45.797873
          ],
          [
            15.960194,
            45.79651
          ],
          [
            15.960185,
            45.796513
          ],
          [
            15.959934,
            45.796124
          ],
          [
            15.958061,
            45.793393
          ],
          [
            15.958061,
            45.793393
          ],
          [
            15.957656,
            45.79278
          ],
          [
            15.956029,
            45.790392
          ],
          [
            15.956029,
            45.790392
          ],
          [
            15.955914,
            45.790212
          ],
          [
            15.954737,
            45.788494
          ],
          [
            15.954741,
            45.788493
          ],
          [
            15.953891,
            45.78728
          ],
          [
            15.953794,
            45.787177
          ],
          [
            15.953654,
            45.787112
          ],
          [
            15.953407,
            45.786997
          ],
          [
            15.953138,
            45.786898
          ],
          [
            15.952469,
            45.786764
          ],
          [
            15.952366,
            45.786778
          ],
          [
            15.952366,
            45.786778
          ],
          [
            15.952098,
            45.786686
          ],
          [
            15.950626,
            45.786364
          ],
          [
            15.950285,
            45.78634
          ],
          [
            15.949879,
            45.786325
          ],
          [
            15.949565,
            45.786343
          ],
          [
            15.949114,
            45.786405
          ],
          [
            15.948558,
            45.78656
          ],
          [
            15.947954,
            45.78678
          ],
          [
            15.947394,
            45.787014
          ],
          [
            15.946931,
            45.787266
          ],
          [
            15.946465,
            45.787584
          ],
          [
            15.945981,
            45.788034
          ],
          [
            15.945855,
            45.788109
          ],
          [
            15.945686,
            45.788172
          ],
          [
            15.945437,
            45.788193
          ],
          [
            15.944801,
            45.78821
          ],
          [
            15.944677,
            45.788246
          ],
          [
            15.944677,
            45.788246
          ],
          [
            15.944557,
            45.788198
          ],
          [
            15.940347,
            45.788211
          ],
          [
            15.940171,
            45.788248
          ],
          [
            15.940171,
            45.788248
          ],
          [
            15.940066,
            45.788211
          ],
          [
            15.937588,
            45.788197
          ],
          [
            15.937461,
            45.788215
          ],
          [
            15.937461,
            45.788215
          ],
          [
            15.937251,
            45.788186
          ],
          [
            15.93645,
            45.788147
          ],
          [
            15.936009,
            45.788104
          ],
          [
            15.935581,
            45.788014
          ],
          [
            15.934732,
            45.787808
          ],
          [
            15.93328,
            45.787412
          ],
          [
            15.932925,
            45.787338
          ],
          [
            15.932605,
            45.787298
          ],
          [
            15.93219,
            45.787297
          ],
          [
            15.931891,
            45.787332
          ],
          [
            15.931414,
            45.787437
          ],
          [
            15.930059,
            45.787793
          ],
          [
            15.930059,
            45.787793
          ],
          [
            15.929565,
            45.787926
          ],
          [
            15.928955,
            45.788082
          ],
          [
            15.928137,
            45.78826
          ],
          [
            15.927432,
            45.788364
          ],
          [
            15.924479,
            45.788786
          ],
          [
            15.922274,
            45.789105
          ],
          [
            15.921901,
            45.789163
          ],
          [
            15.921588,
            45.789232
          ],
          [
            15.921184,
            45.789359
          ],
          [
            15.920016,
            45.789897
          ],
          [
            15.920016,
            45.789897
          ],
          [
            15.917784,
            45.790907
          ],
          [
            15.917069,
            45.791155
          ],
          [
            15.916429,
            45.791347
          ],
          [
            15.915652,
            45.791526
          ],
          [
            15.914857,
            45.791643
          ],
          [
            15.914639,
            45.791679
          ],
          [
            15.914076,
            45.791718
          ],
          [
            15.912901,
            45.791855
          ],
          [
            15.912901,
            45.791856
          ],
          [
            15.911429,
            45.791994
          ],
          [
            15.905243,
            45.792616
          ],
          [
            15.905246,
            45.792615
          ],
          [
            15.903537,
            45.792773
          ],
          [
            15.902929,
            45.792883
          ],
          [
            15.901972,
            45.793178
          ],
          [
            15.901904,
            45.79322
          ],
          [
            15.901902,
            45.793221
          ],
          [
            15.901802,
            45.79324
          ],
          [
            15.898475,
            45.794375
          ],
          [
            15.898481,
            45.794374
          ],
          [
            15.898222,
            45.794442
          ],
          [
            15.897601,
            45.794561
          ],
          [
            15.897101,
            45.794636
          ],
          [
            15.896582,
            45.794688
          ],
          [
            15.895681,
            45.794716
          ],
          [
            15.89504,
            45.794674
          ],
          [
            15.89461,
            45.794623
          ],
          [
            15.894005,
            45.794519
          ],
          [
            15.892713,
            45.794263
          ],
          [
            15.892595,
            45.794266
          ]
        ]
      },
      "properties": {}
    }
  ]
}