{
  "type": "FeatureCollection",
  "features": [
    {
      "type": "Feature",
      "geometry": {
        "type": "LineString",
        "coordinates": [
          [
            15.893478,
            45.794365
          ],
          [
            15.893853,
            45.794456
          ],
          [
            15.894082,
            45.794508
          ],
          [
            15.894414,
            45.794553
          ],
          [
            15.894738,
            45.794599
          ],
          [
            15.895094,
            45.794634
          ],
          [
            15.895354,
            45.79465
          ],
          [
            15.89572,
            45.794665
          ],
          [
            15.89596,
            45.794664
          ],
          [
            15.896241,
            45.794664
          ],
          [
            15.896568,
            45.794645
          ],
          [
            15.89696,
            45.79461
          ],
          [
            15.89723,
            45.794573
          ],
          [
            15.897566,
            45.794533
          ],
          [
            15.89773,
            45.794497
          ],
          [
            15.898006,
            45.794433
          ],
          [
            15.898344,
            45.794354
          ],
          [
            15.898959,
            45.794172
          ],
          [
            15.898956,
            45.794173
          ],
          [
            15.899301,
            45.79406
          ],
          [
            15.902363,
            45.793015
          ],
          [
            15.902366,
            45.793013
          ],
          [
            15.902675,
            45.792931
          ],
          [
            15.902935,
            45.792863
          ],
          [
            15.903124,
            45.792818
          ],
          [
            15.903378,
            45.79277
          ],
          [
            15.90353,
            45.792742
          ],
          [
            15.907002,
            45.792405
          ],
          [
            15.90699,
            45.792401
          ],
          [
            15.907403,
            45.792362
          ],
          [
            15.914744,
            45.791627
          ],
          [
            15.914744,
            45.791626
          ],
          [
            15.915129,
            45.791566
          ],
          [
            15.915448,
            45.791516
          ],
          [
            15.915941,
            45.791421
          ],
          [
            15.916304,
            45.791332
          ],
          [
            15.916579,
            45.791268
          ],
          [
            15.916864,
            45.79119
          ],
          [
            15.91733,
            45.791041
          ],
          [
            15.917903,
            45.790806
          ],
          [
            15.920608,
            45.789582
          ],
          [
            15.920608,
            45.789582
          ],
          [
            15.920924,
            45.789434
          ],
          [
            15.921371,
            45.789268
          ],
          [
            15.92173,
            45.789167
          ],
          [
            15.922042,
            45.789091
          ],
          [
            15.923456,
            45.788896
          ],
          [
            15.924996,
            45.788676
          ],
          [
            15.926676,
            45.78843
          ],
          [
            15.927844,
            45.788262
          ],
          [
            15.928579,
            45.788121
          ],
          [
            15.929464,
            45.787901
          ],
          [
            15.929464,
            45.787901
          ],
          [
            15.929913,
            45.787794
          ],
          [
            15.930695,
            45.787582
          ],
          [
            15.931425,
            45.787383
          ],
          [
            15.932061,
            45.787269
          ],
          [
            15.932566,
            45.787258
          ],
          [
            15.932967,
            45.787306
          ],
          [
            15.933379,
            45.787385
          ],
          [
            15.934075,
            45.787574
          ],
          [
            15.934649,
            45.787748
          ],
          [
            15.935401,
            45.787949
          ],
          [
            15.936035,
            45.788055
          ],
          [
            15.936571,
            45.788105
          ],
          [
            15.936811,
            45.788104
          ],
          [
            15.936811,
            45.788104
          ],
          [
            15.937062,
            45.788134
          ],
          [
            15.938835,
            45.788161
          ],
          [
            15.94223,
            45.788151
          ],
          [
            15.942225,
            45.788154
          ],
          [
            15.942649,
            45.788164
          ],
          [
            15.945417,
            45.788177
          ],
          [
            15.945421,
            45.788176
          ],
          [
            15.945613,
            45.788149
          ],
          [
            15.945811,
            45.788096
          ],
          [
            15.945963,
            45.787977
          ],
          [
            15.946189,
            45.787745
          ],
          [
            15.946544,
            45.787449
          ],
          [
            15.947042,
            45.78714
          ],
          [
            15.947715,
            45.786833
          ],
          [
            15.94842,
            45.786547
          ],
          [
            15.949038,
            45.786377
          ],
          [
            15.949473,
            45.786303
          ],
          [
            15.949959,
            45.786275
          ],
          [
            15.950462,
            45.786303
          ],
          [
            15.950987,
            45.786405
          ],
          [
            15.950987,
            45.786405
          ],
          [
            15.95164,
            45.786535
          ],
          [
            15.952757,
            45.786783
          ],
          [
            15.953197,
            45.786871
          ],
          [
            15.953566,
            45.786988
          ],
          [
            15.953894,
            45.787202
          ],
          [
            15.95409,
            45.78737
          ],
          [
            15.955129,
            45.7889
          ],
          [
            15.955129,
            45.788901
          ],
          [
            15.955592,
            45.789569
          ],
          [
            15.956949,
            45.791575
          ],
          [
            15.956949,
            45.791575
          ],
          [
            15.957259,
            45.792018
          ],
          [
            15.959224,
            45.794912
          ],
          [
            15.959224,
            45.794912
          ],
          [
            15.95982,
            45.795783
          ],
          [
            15.960867,
            45.797338
          ],
          [
            15.960878,
            45.797337
          ],
          [
            15.961495,
            45.798211
          ],
          [
            15.962151,
            45.799217
          ],
          [
            15.962315,
            45.799369
          ],
          [
            15.962541,
            45.799409
          ],
          [
            15.962985,
            45.799413
          ],
          [
            15.963132,
            45.799412
          ],
          [
            15.96322,
            45.799348
          ],
          [
            15.96322,
            45.799348
          ],
          [
            15.963241,
            45.799416
          ],
          [
            15.967669,
            45.799645
          ],
          [
            15.967658,
            45.799699
          ],
          [
            15.967653,
            45.799702
          ],
          [
            15.967669,
            45.799645
          ],
          [
            15.971146,
            45.799816
          ],
          [
            15.971146,
            45.799816
          ],
          [
            15.973076,
            45.799927
          ],
          [
            15.975453,
            45.80006
          ],
          [
            15.975453,
            45.80006
          ],
          [
            15.977857,
            45.800171
          ],
          [
            15.980091,
            45.800299
          ],
          [
            15.980091,
            45.800299
          ],
          [
            15.984925,
            45.800546
          ],
          [
            15.98492,
            45.800556
          ],
          [
            15.984928,
            45.800558
          ],
          [
            15.984912,
            45.800548
          ],
          [
            15.988918,
            45.80075
          ],
          [
            15.988884,
            45.800768
          ],
          [
            15.988884,
            45.800768
          ],
          [
            15.990909,
            45.80083
          ],
          [
            15.993636,
            45.800958
          ],
          [
            15.99485,
            45.801035
          ],
          [
            15.995109,
            45.801051
          ],
          [
            15.995281,
            45.801138
          ],
          [
            15.995334,
            45.801228
          ],
          [
            15.995331,
            45.801306
          ],
          [
            15.995131,
            45.801671
          ],
          [
            15.994951,
            45.801969
          ],
          [
            15.994951,
            45.801969
          ],
          [
            15.994549,
            45.8027
          ],
          [
            15.993981,
            45.803675
          ],
          [
            15.99382,
            45.803995
          ],
          [
            15.993741,
            45.804136
          ],
          [
            15.993695,
            45.804253
          ],
          [
            15.993635,
            45.804326
          ],
          [
            15.993628,
            45.804386
          ],
          [
            15.993628,
            45.804386
          ],
          [
            15.993505,
            45.804519
          ],
          [
            15.993457,
            45.804584
          ],
          [
            15.993381,
            45.804731
          ],
          [
            15.992989,
            45.805402
          ],
          [
            15.992649,
            45.806027
          ],
          [
            15.992439,
            45.806355
          ],
          [
            15.99219,
            45.806831
          ],
          [
            15.992086,
            45.806975
          ],
          [
            15.991991,
            45.807105
          ],
          [
            15.991878,
            45.80727
          ],
          [
            15.991765,
            45.807435
          ],
          [
            15.991703,
            45.807904
          ],
          [
            15.991698,
            45.808028
          ],
          [
            15.991698,
            45.808113
          ],
          [
            15.991698,
            45.808113
          ],
          [
            15.991668,
            45.808331
          ],
          [
            15.991714,
            45.808487
          ],
          [
            15.991829,
            45.808653
          ],
          [
            15.992073,
            45.808937
          ],
          [
            15.993114,
            45.81011
          ],
          [
            15.993648,
            45.810743
          ],
          [
            15.99386,
            45.810915
          ],
          [
            15.99386,
            45.810915
          ],
          [
            15.993927,
            45.811061
          ],
          [
            15.994067,
            45.81121
          ],
          [
            15.994334,
            45.81153
          ],
          [
            15.994614,
            45.811842
          ],
          [
            15.996521,
            45.814055
          ],
          [
            15.996521,
            45.814055
          ],
          [
            15.996676,
            45.814216
          ],
          [
            15.996724,
            45.814241
          ],
          [
            15.997382,
            45.814475
          ],
          [
            15.99749,
            45.814524
          ],
          [
            15.997532,
            45.814577
          ],
          [
            15.997499,
            45.814692
          ],
          [
            15.99741,
            45.814841
          ],
          [
            15.997343,
            45.81498
          ],
          [
            15.9974,
            45.815082
          ],
          [
            15.997559,
            45.81517
          ],
          [
            15.997764,
            45.815233
          ],
          [
            16.003062,
            45.81645
          ],
          [
            16.003352,
            45.816526
          ],
          [
            16.003453,
            45.816551
          ],
          [
            16.003533,
            45.816592
          ],
          [
            16.003533,
            45.816592
          ],
          [
            16.003752,
            45.816607
          ],
          [
            16.008159,
            45.817623
          ],
          [
            16.008159,
            45.817623
          ],
          [
            16.008578,
            45.817727
          ],
          [
            16.009679,
            45.817969
          ],
          [
            16.011896,
            45.818498
          ],
          [
            16.013376,
            45.818838
          ],
          [
            16.014391,
            45.819105
          ],
          [
            16.01475,
            45.819185
          ],
          [
            16.015024,
            45.819251
          ],
          [
            16.015199,
            45.819343
          ],
          [
            16.015261,
            45.819425
          ],
          [
            16.01525,
            45.819479
          ],
          [
            16.015169,
            45.819562
          ],
          [
            16.01509,
            45.819612
          ],
          [
            16.015008,
            45.81961
          ],
          [
            16.014895,
            45.819587
          ],
          [
            16.014687,
            45.819427
          ]
        ]
      },
      "properties": {}
    }
  ]
}