{
  "type": "FeatureCollection",
  "features": [
    {
      "type": "Feature",
      "geometry": {
        "type": "LineString",
        "coordinates": [
          [
            15.95332,
            45.786297
          ],
          [
            15.953552,
            45.786581
          ],
          [
            15.955129,
            45.788901
          ],
          [
            15.955129,
            45.788901
          ],
          [
            15.955592,
            45.789569
          ],
          [
            15.956949,
            45.791575
          ],
          [
            15.956949,
            45.791575
          ],
          [
            15.957259,
            45.792018
          ],
          [
            15.959224,
            45.794912
          ],
          [
            15.959224,
            45.794912
          ],
          [
            15.95982,
            45.795783
          ],
          [
            15.960867,
            45.797338
          ],
          [
            15.960878,
            45.797337
          ],
          [
            15.96225,
            45.799372
          ],
          [
            15.962619,
            45.799859
          ],
          [
            15.962748,
            45.800069
          ],
          [
            15.962837,
            45.800095
          ],
          [
            15.962837,
            45.800095
          ],
          [
            15.962879,
            45.800239
          ],
          [
            15.964675,
            45.802897
          ],
          [
            15.964721,
            45.802962
          ],
          [
            15.964677,
            45.802948
          ],
          [
            15.964677,
            45.802948
          ],
          [
            15.965301,
            45.803842
          ],
          [
            15.965734,
            45.804456
          ],
          [
            15.966056,
            45.804918
          ],
          [
            15.966284,
            45.805276
          ],
          [
            15.966408,
            45.805343
          ],
          [
            15.96654,
            45.805383
          ],
          [
            15.967634,
            45.805413
          ],
          [
            15.967645,
            45.805359
          ],
          [
            15.967645,
            45.805359
          ],
          [
            15.967675,
            45.805414
          ],
          [
            15.969018,
            45.805435
          ],
          [
            15.971477,
            45.805515
          ],
          [
            15.972368,
            45.805541
          ],
          [
            15.973437,
            45.805581
          ],
          [
            15.973663,
            45.805621
          ],
          [
            15.973663,
            45.805621
          ],
          [
            15.974033,
            45.805557
          ],
          [
            15.974858,
            45.805585
          ],
          [
            15.976135,
            45.805615
          ],
          [
            15.976379,
            45.80562
          ],
          [
            15.977079,
            45.80564
          ],
          [
            15.977726,
            45.805647
          ],
          [
            15.977819,
            45.805647
          ],
          [
            15.977915,
            45.805608
          ],
          [
            15.977991,
            45.805546
          ],
          [
            15.978008,
            45.805426
          ],
          [
            15.97803,
            45.805319
          ],
          [
            15.978102,
            45.805245
          ],
          [
            15.978185,
            45.805207
          ],
          [
            15.97834,
            45.805192
          ],
          [
            15.978941,
            45.805232
          ],
          [
            15.979197,
            45.805235
          ],
          [
            15.979272,
            45.805218
          ],
          [
            15.979272,
            45.805218
          ],
          [
            15.979295,
            45.805254
          ],
          [
            15.979498,
            45.805265
          ],
          [
            15.980968,
            45.805346
          ],
          [
            15.982573,
            45.805435
          ],
          [
            15.983386,
            45.805465
          ],
          [
            15.983714,
            45.80549
          ],
          [
            15.983765,
            45.805438
          ],
          [
            15.983765,
            45.805438
          ],
          [
            15.983778,
            45.805527
          ],
          [
            15.983833,
            45.805487
          ],
          [
            15.98393,
            45.805499
          ],
          [
            15.984032,
            45.80557
          ],
          [
            15.984059,
            45.805618
          ],
          [
            15.984075,
            45.805719
          ],
          [
            15.983907,
            45.807696
          ],
          [
            15.983905,
            45.807917
          ],
          [
            15.983889,
            45.808094
          ],
          [
            15.98387,
            45.808253
          ],
          [
            15.983882,
            45.808439
          ],
          [
            15.983882,
            45.808439
          ],
          [
            15.983844,
            45.808575
          ],
          [
            15.983793,
            45.809179
          ],
          [
            15.983724,
            45.809902
          ],
          [
            15.983707,
            45.810385
          ],
          [
            15.983726,
            45.810408
          ],
          [
            15.98372,
            45.810407
          ],
          [
            15.983702,
            45.810599
          ],
          [
            15.983487,
            45.813355
          ],
          [
            15.983495,
            45.813354
          ],
          [
            15.983444,
            45.813497
          ],
          [
            15.98338,
            45.813655
          ],
          [
            15.983365,
            45.813735
          ],
          [
            15.983427,
            45.813811
          ],
          [
            15.983534,
            45.813861
          ],
          [
            15.983619,
            45.813869
          ],
          [
            15.983805,
            45.813817
          ],
          [
            15.984024,
            45.813748
          ],
          [
            15.984307,
            45.813702
          ],
          [
            15.986632,
            45.813697
          ],
          [
            15.986753,
            45.813739
          ],
          [
            15.986753,
            45.813739
          ],
          [
            15.986811,
            45.813705
          ],
          [
            15.987735,
            45.813712
          ],
          [
            15.98954,
            45.813793
          ],
          [
            15.991696,
            45.813844
          ],
          [
            15.991696,
            45.813844
          ],
          [
            15.99273,
            45.813862
          ],
          [
            15.993327,
            45.813883
          ],
          [
            15.993679,
            45.813944
          ],
          [
            15.99528,
            45.814384
          ],
          [
            15.996212,
            45.814683
          ],
          [
            15.996967,
            45.814928
          ],
          [
            15.997061,
            45.814928
          ],
          [
            15.997061,
            45.814928
          ],
          [
            15.997163,
            45.815005
          ],
          [
            15.997672,
            45.815193
          ],
          [
            15.997853,
            45.815259
          ],
          [
            16.003437,
            45.816546
          ],
          [
            16.003533,
            45.816592
          ],
          [
            16.003533,
            45.816592
          ],
          [
            16.003752,
            45.816607
          ],
          [
            16.008159,
            45.817623
          ],
          [
            16.008156,
            45.817625
          ],
          [
            16.012255,
            45.818578
          ],
          [
            16.014085,
            45.819036
          ],
          [
            16.014089,
            45.81903
          ],
          [
            16.015128,
            45.819288
          ],
          [
            16.017858,
            45.819921
          ],
          [
            16.020959,
            45.820631
          ],
          [
            16.022278,
            45.820928
          ],
          [
            16.022726,
            45.821041
          ],
          [
            16.022729,
            45.821047
          ],
          [
            16.022722,
            45.821022
          ],
          [
            16.022722,
            45.821022
          ],
          [
            16.022874,
            45.821085
          ],
          [
            16.023636,
            45.821265
          ],
          [
            16.027491,
            45.822078
          ],
          [
            16.027491,
            45.822078
          ],
          [
            16.034547,
            45.823626
          ],
          [
            16.034917,
            45.823653
          ],
          [
            16.035675,
            45.82382
          ],
          [
            16.038149,
            45.824351
          ],
          [
            16.039978,
            45.82483
          ],
          [
            16.039997,
            45.824853
          ],
          [
            16.039997,
            45.824853
          ],
          [
            16.040018,
            45.824837
          ],
          [
            16.041614,
            45.825245
          ],
          [
            16.041683,
            45.825254
          ],
          [
            16.041743,
            45.825278
          ],
          [
            16.042118,
            45.825369
          ],
          [
            16.042355,
            45.82544
          ],
          [
            16.04314,
            45.825655
          ],
          [
            16.043971,
            45.825935
          ],
          [
            16.045282,
            45.826427
          ],
          [
            16.045351,
            45.826437
          ],
          [
            16.045368,
            45.826402
          ],
          [
            16.045368,
            45.826402
          ],
          [
            16.045335,
            45.826426
          ],
          [
            16.04667,
            45.826915
          ],
          [
            16.047983,
            45.827362
          ],
          [
            16.048722,
            45.827603
          ],
          [
            16.048722,
            45.827603
          ],
          [
            16.049026,
            45.827729
          ],
          [
            16.052417,
            45.828821
          ],
          [
            16.052495,
            45.828816
          ],
          [
            16.052448,
            45.828881
          ],
          [
            16.052467,
            45.828807
          ],
          [
            16.053183,
            45.829012
          ],
          [
            16.053611,
            45.829102
          ],
          [
            16.05403,
            45.829206
          ],
          [
            16.054474,
            45.829306
          ],
          [
            16.055088,
            45.829428
          ],
          [
            16.055468,
            45.829498
          ],
          [
            16.055744,
            45.829525
          ],
          [
            16.056243,
            45.829579
          ],
          [
            16.056815,
            45.829615
          ],
          [
            16.056815,
            45.829615
          ],
          [
            16.057169,
            45.829631
          ],
          [
            16.057364,
            45.829656
          ],
          [
            16.057641,
            45.829643
          ],
          [
            16.058033,
            45.829614
          ],
          [
            16.059281,
            45.829388
          ],
          [
            16.060714,
            45.829123
          ],
          [
            16.061289,
            45.829024
          ],
          [
            16.062273,
            45.828867
          ],
          [
            16.06324,
            45.828739
          ],
          [
            16.063825,
            45.828677
          ],
          [
            16.063823,
            45.828722
          ],
          [
            16.063823,
            45.828722
          ],
          [
            16.063881,
            45.828688
          ],
          [
            16.064171,
            45.828674
          ],
          [
            16.06462,
            45.82865
          ],
          [
            16.065035,
            45.82865
          ],
          [
            16.065751,
            45.828674
          ],
          [
            16.066736,
            45.828698
          ],
          [
            16.066927,
            45.828711
          ],
          [
            16.067696,
            45.828727
          ],
          [
            16.067793,
            45.828739
          ],
          [
            16.06814,
            45.828736
          ],
          [
            16.068458,
            45.828724
          ],
          [
            16.068732,
            45.828699
          ],
          [
            16.0696,
            45.828597
          ],
          [
            16.069699,
            45.82857
          ],
          [
            16.069699,
            45.82857
          ],
          [
            16.069752,
            45.82857
          ],
          [
            16.072364,
            45.82825
          ],
          [
            16.0727,
            45.82821
          ],
          [
            16.072995,
            45.828169
          ],
          [
            16.072995,
            45.828169
          ],
          [
            16.075069,
            45.827937
          ],
          [
            16.075812,
            45.827821
          ],
          [
            16.075861,
            45.827801
          ],
          [
            16.076243,
            45.827735
          ],
          [
            16.076674,
            45.827655
          ],
          [
            16.076748,
            45.827632
          ],
          [
            16.078165,
            45.827356
          ],
          [
            16.078321,
            45.827334
          ],
          [
            16.078437,
            45.82737
          ],
          [
            16.078496,
            45.827433
          ],
          [
            16.078516,
            45.82754
          ],
          [
            16.078509,
            45.827606
          ],
          [
            16.078466,
            45.827651
          ],
          [
            16.078399,
            45.827693
          ],
          [
            16.077696,
            45.82785
          ]
        ]
      },
      "properties": {}
    }
  ]
}