{
  "type": "FeatureCollection",
  "features": [
    {
      "type": "Feature",
      "geometry": {
        "type": "LineString",
        "coordinates": [
          [
            15.97522,
            45.842557
          ],
          [
            15.975865,
            45.843565
          ],
          [
            15.976178,
            45.844131
          ],
          [
            15.976336,
            45.844707
          ],
          [
            15.9764,
            45.845386
          ],
          [
            15.976453,
            45.846112
          ],
          [
            15.976446,
            45.846729
          ],
          [
            15.976333,
            45.847257
          ],
          [
            15.976068,
            45.847813
          ],
          [
            15.975136,
            45.849377
          ],
          [
            15.975136,
            45.849377
          ],
          [
            15.974588,
            45.85016
          ],
          [
            15.974081,
            45.850938
          ],
          [
            15.973609,
            45.851659
          ],
          [
            15.973437,
            45.852033
          ],
          [
            15.973372,
            45.852308
          ],
          [
            15.973312,
            45.853017
          ],
          [
            15.973258,
            45.854336
          ],
          [
            15.973258,
            45.854336
          ],
          [
            15.973257,
            45.85529
          ],
          [
            15.973201,
            45.856375
          ],
          [
            15.973226,
            45.856826
          ],
          [
            15.973299,
            45.857205
          ],
          [
            15.973527,
            45.857667
          ],
          [
            15.973734,
            45.857962
          ],
          [
            15.974176,
            45.858368
          ],
          [
            15.974176,
            45.858368
          ],
          [
            15.974592,
            45.858648
          ],
          [
            15.975127,
            45.858912
          ],
          [
            15.975617,
            45.859077
          ],
          [
            15.976841,
            45.859323
          ],
          [
            15.978491,
            45.859606
          ],
          [
            15.979995,
            45.859891
          ],
          [
            15.980467,
            45.859994
          ],
          [
            15.980872,
            45.860139
          ],
          [
            15.981334,
            45.860393
          ],
          [
            15.981553,
            45.86059
          ],
          [
            15.981603,
            45.860667
          ]
        ]
      },
      "properties": {}
    }
  ]
}