{
  "type": "FeatureCollection",
  "features": [
    {
      "type": "Feature",
      "geometry": {
        "type": "LineString",
        "coordinates": [
          [
            15.938562,
            45.797283
          ],
          [
            15.938657,
            45.797244
          ],
          [
            15.943251,
            45.797678
          ],
          [
            15.943543,
            45.797709
          ],
          [
            15.944087,
            45.797828
          ],
          [
            15.944087,
            45.797828
          ],
          [
            15.945,
            45.797981
          ],
          [
            15.946774,
            45.798286
          ],
          [
            15.947057,
            45.798338
          ],
          [
            15.94729,
            45.798403
          ],
          [
            15.947703,
            45.798534
          ],
          [
            15.948458,
            45.798786
          ],
          [
            15.948447,
            45.79884
          ],
          [
            15.948447,
            45.79884
          ],
          [
            15.948453,
            45.798807
          ],
          [
            15.949742,
            45.799192
          ],
          [
            15.950299,
            45.799316
          ],
          [
            15.95084,
            45.799423
          ],
          [
            15.951106,
            45.799464
          ],
          [
            15.952073,
            45.799615
          ],
          [
            15.953432,
            45.799823
          ],
          [
            15.953796,
            45.799876
          ],
          [
            15.954257,
            45.799948
          ],
          [
            15.954644,
            45.800031
          ],
          [
            15.954835,
            45.800044
          ],
          [
            15.954835,
            45.800044
          ],
          [
            15.954955,
            45.800092
          ],
          [
            15.955688,
            45.800263
          ],
          [
            15.956195,
            45.8004
          ],
          [
            15.956874,
            45.800611
          ],
          [
            15.957367,
            45.800783
          ],
          [
            15.959109,
            45.801618
          ],
          [
            15.959217,
            45.801668
          ],
          [
            15.959309,
            45.801701
          ],
          [
            15.959309,
            45.801701
          ],
          [
            15.959432,
            45.801762
          ],
          [
            15.96273,
            45.803335
          ],
          [
            15.962862,
            45.803375
          ],
          [
            15.962981,
            45.803372
          ],
          [
            15.964096,
            45.803295
          ],
          [
            15.964304,
            45.803273
          ],
          [
            15.964306,
            45.803324
          ],
          [
            15.964306,
            45.803324
          ],
          [
            15.964382,
            45.803268
          ],
          [
            15.964537,
            45.803247
          ],
          [
            15.964651,
            45.803179
          ],
          [
            15.964665,
            45.803047
          ],
          [
            15.96432,
            45.80255
          ],
          [
            15.964203,
            45.80243
          ],
          [
            15.964203,
            45.80243
          ],
          [
            15.963931,
            45.801955
          ],
          [
            15.962349,
            45.799618
          ],
          [
            15.962363,
            45.799486
          ],
          [
            15.962492,
            45.799416
          ],
          [
            15.962628,
            45.799384
          ],
          [
            15.963091,
            45.799411
          ],
          [
            15.963291,
            45.799403
          ],
          [
            15.96322,
            45.799348
          ],
          [
            15.96322,
            45.799348
          ],
          [
            15.963241,
            45.799416
          ],
          [
            15.967669,
            45.799645
          ],
          [
            15.967658,
            45.799699
          ],
          [
            15.967653,
            45.799702
          ],
          [
            15.967669,
            45.799645
          ],
          [
            15.971146,
            45.799816
          ],
          [
            15.971146,
            45.799816
          ],
          [
            15.973076,
            45.799927
          ],
          [
            15.975453,
            45.80006
          ],
          [
            15.975453,
            45.80006
          ],
          [
            15.977857,
            45.800171
          ],
          [
            15.980091,
            45.800299
          ],
          [
            15.980091,
            45.800299
          ],
          [
            15.984925,
            45.800546
          ],
          [
            15.98492,
            45.800556
          ],
          [
            15.984928,
            45.800558
          ],
          [
            15.984912,
            45.800548
          ],
          [
            15.988918,
            45.80075
          ],
          [
            15.988884,
            45.800768
          ],
          [
            15.988884,
            45.800768
          ],
          [
            15.988893,
            45.800754
          ],
          [
            15.995109,
            45.801051
          ],
          [
            15.996438,
            45.801113
          ],
          [
            15.996429,
            45.801127
          ],
          [
            15.996429,
            45.801127
          ],
          [
            15.996454,
            45.801118
          ],
          [
            15.999859,
            45.80128
          ],
          [
            15.999829,
            45.801317
          ],
          [
            15.999829,
            45.801317
          ],
          [
            15.99985,
            45.801294
          ],
          [
            16.003937,
            45.801492
          ],
          [
            16.00392,
            45.80152
          ],
          [
            16.00392,
            45.80152
          ],
          [
            16.003962,
            45.801488
          ],
          [
            16.004506,
            45.801516
          ],
          [
            16.005079,
            45.801554
          ],
          [
            16.005545,
            45.801592
          ],
          [
            16.006097,
            45.801646
          ],
          [
            16.006758,
            45.801709
          ],
          [
            16.007231,
            45.801773
          ],
          [
            16.008647,
            45.801992
          ],
          [
            16.010502,
            45.802292
          ],
          [
            16.010506,
            45.80231
          ],
          [
            16.010498,
            45.802312
          ],
          [
            16.011169,
            45.80242
          ],
          [
            16.014683,
            45.803022
          ],
          [
            16.014683,
            45.803022
          ],
          [
            16.01716,
            45.803409
          ],
          [
            16.019917,
            45.803884
          ],
          [
            16.019924,
            45.803881
          ],
          [
            16.021538,
            45.804137
          ],
          [
            16.022087,
            45.804229
          ],
          [
            16.022545,
            45.804289
          ],
          [
            16.023255,
            45.804339
          ],
          [
            16.023255,
            45.804339
          ],
          [
            16.023604,
            45.804291
          ],
          [
            16.023899,
            45.804243
          ],
          [
            16.024257,
            45.804148
          ],
          [
            16.024538,
            45.804056
          ],
          [
            16.026014,
            45.803338
          ],
          [
            16.026376,
            45.803158
          ],
          [
            16.026812,
            45.802961
          ],
          [
            16.026812,
            45.802961
          ],
          [
            16.027013,
            45.802829
          ],
          [
            16.028154,
            45.802242
          ],
          [
            16.02939,
            45.801622
          ],
          [
            16.029936,
            45.801338
          ],
          [
            16.030538,
            45.801072
          ],
          [
            16.030529,
            45.801076
          ],
          [
            16.030714,
            45.800944
          ],
          [
            16.03477,
            45.798859
          ],
          [
            16.034773,
            45.79886
          ],
          [
            16.035696,
            45.798413
          ],
          [
            16.03621,
            45.798108
          ],
          [
            16.036529,
            45.797875
          ],
          [
            16.03679,
            45.79767
          ],
          [
            16.037108,
            45.797385
          ],
          [
            16.037561,
            45.796881
          ],
          [
            16.037695,
            45.796791
          ],
          [
            16.037695,
            45.796791
          ],
          [
            16.037653,
            45.796738
          ],
          [
            16.037768,
            45.796625
          ],
          [
            16.038041,
            45.796236
          ],
          [
            16.038122,
            45.796056
          ],
          [
            16.038167,
            45.795758
          ],
          [
            16.038302,
            45.795174
          ],
          [
            16.0384,
            45.794505
          ],
          [
            16.038479,
            45.794085
          ],
          [
            16.038521,
            45.793774
          ],
          [
            16.038561,
            45.793593
          ],
          [
            16.038544,
            45.793128
          ],
          [
            16.038544,
            45.793128
          ],
          [
            16.038521,
            45.793099
          ],
          [
            16.038463,
            45.793036
          ],
          [
            16.038406,
            45.792933
          ],
          [
            16.038038,
            45.792504
          ],
          [
            16.037861,
            45.792354
          ],
          [
            16.037459,
            45.791949
          ],
          [
            16.037146,
            45.791649
          ],
          [
            16.037157,
            45.791414
          ],
          [
            16.037157,
            45.791414
          ],
          [
            16.036932,
            45.791426
          ],
          [
            16.034954,
            45.789527
          ],
          [
            16.03446,
            45.789077
          ]
        ]
      },
      "properties": {}
    }
  ]
}