{
  "type": "FeatureCollection",
  "features": [
    {
      "type": "Feature",
      "geometry": {
        "type": "LineString",
        "coordinates": [
          [
            16.000352,
            45.778185
          ],
          [
            16.000476,
            45.778058
          ],
          [
            16.000704,
            45.778059
          ],
          [
            16.000891,
            45.778058
          ],
          [
            16.001465,
            45.778056
          ],
          [
            16.001797,
            45.778179
          ],
          [
            16.002025,
            45.778368
          ],
          [
            16.002016,
            45.778479
          ],
          [
            16.001726,
            45.779448
          ],
          [
            16.001645,
            45.779622
          ],
          [
            16.001508,
            45.780069
          ],
          [
            16.001404,
            45.780401
          ],
          [
            16.001319,
            45.780926
          ],
          [
            16.001285,
            45.781359
          ],
          [
            16.001303,
            45.781694
          ],
          [
            16.001372,
            45.782067
          ],
          [
            16.001432,
            45.782273
          ],
          [
            16.001453,
            45.782341
          ],
          [
            16.001453,
            45.782341
          ],
          [
            16.001533,
            45.78257
          ],
          [
            16.001883,
            45.783301
          ],
          [
            16.001956,
            45.783414
          ],
          [
            16.002248,
            45.783912
          ],
          [
            16.002653,
            45.784608
          ],
          [
            16.00277,
            45.784819
          ],
          [
            16.002993,
            45.785216
          ],
          [
            16.00318,
            45.785489
          ],
          [
            16.003603,
            45.786248
          ],
          [
            16.003844,
            45.786701
          ],
          [
            16.003954,
            45.786893
          ],
          [
            16.004014,
            45.787008
          ],
          [
            16.004078,
            45.78722
          ],
          [
            16.004119,
            45.787312
          ],
          [
            16.004186,
            45.787633
          ],
          [
            16.004248,
            45.787891
          ],
          [
            16.004271,
            45.788199
          ],
          [
            16.004261,
            45.788804
          ],
          [
            16.004261,
            45.788804
          ],
          [
            16.004177,
            45.789244
          ],
          [
            16.004057,
            45.789657
          ],
          [
            16.00389,
            45.790043
          ],
          [
            16.003454,
            45.790701
          ],
          [
            16.002438,
            45.791978
          ],
          [
            16.002438,
            45.791978
          ],
          [
            16.002198,
            45.792349
          ],
          [
            15.999305,
            45.796068
          ],
          [
            15.999169,
            45.796197
          ],
          [
            15.998879,
            45.796575
          ],
          [
            15.998878,
            45.79662
          ],
          [
            15.998878,
            45.79662
          ],
          [
            15.99877,
            45.796752
          ],
          [
            15.998221,
            45.797478
          ],
          [
            15.997898,
            45.797886
          ],
          [
            15.997432,
            45.798483
          ],
          [
            15.996906,
            45.799153
          ],
          [
            15.996441,
            45.799756
          ],
          [
            15.995966,
            45.800368
          ],
          [
            15.995676,
            45.800752
          ],
          [
            15.994951,
            45.801969
          ],
          [
            15.994951,
            45.801969
          ],
          [
            15.994549,
            45.8027
          ],
          [
            15.993981,
            45.803675
          ],
          [
            15.99382,
            45.803995
          ],
          [
            15.993741,
            45.804136
          ],
          [
            15.993695,
            45.804253
          ],
          [
            15.993635,
            45.804326
          ],
          [
            15.993628,
            45.804386
          ],
          [
            15.993628,
            45.804386
          ],
          [
            15.993531,
            45.80447
          ],
          [
            15.993258,
            45.80495
          ],
          [
            15.992989,
            45.805409
          ],
          [
            15.992751,
            45.805825
          ],
          [
            15.992658,
            45.806006
          ],
          [
            15.992523,
            45.806187
          ],
          [
            15.992416,
            45.806228
          ],
          [
            15.99235,
            45.806237
          ],
          [
            15.99159,
            45.806109
          ],
          [
            15.991435,
            45.806131
          ],
          [
            15.991435,
            45.806131
          ],
          [
            15.991384,
            45.806086
          ],
          [
            15.990599,
            45.805968
          ],
          [
            15.989991,
            45.805903
          ],
          [
            15.989533,
            45.80585
          ],
          [
            15.988088,
            45.805759
          ],
          [
            15.984448,
            45.80557
          ],
          [
            15.984448,
            45.80557
          ],
          [
            15.984244,
            45.805566
          ],
          [
            15.984124,
            45.805615
          ],
          [
            15.984066,
            45.805734
          ],
          [
            15.984045,
            45.806022
          ],
          [
            15.984019,
            45.806526
          ],
          [
            15.983989,
            45.806926
          ],
          [
            15.983942,
            45.807269
          ],
          [
            15.983919,
            45.807597
          ],
          [
            15.983917,
            45.807915
          ],
          [
            15.983875,
            45.808129
          ],
          [
            15.983884,
            45.808212
          ],
          [
            15.983873,
            45.808265
          ],
          [
            15.983882,
            45.808443
          ],
          [
            15.983882,
            45.808439
          ],
          [
            15.983844,
            45.808575
          ],
          [
            15.983793,
            45.809179
          ],
          [
            15.983724,
            45.809902
          ],
          [
            15.983707,
            45.810385
          ],
          [
            15.983726,
            45.810408
          ],
          [
            15.98372,
            45.810407
          ],
          [
            15.983702,
            45.810599
          ],
          [
            15.983487,
            45.813355
          ],
          [
            15.983495,
            45.813354
          ],
          [
            15.983453,
            45.813853
          ],
          [
            15.983368,
            45.814014
          ],
          [
            15.983342,
            45.814069
          ],
          [
            15.983227,
            45.814176
          ],
          [
            15.98304,
            45.814267
          ],
          [
            15.982312,
            45.814706
          ],
          [
            15.982026,
            45.814921
          ],
          [
            15.981129,
            45.816694
          ],
          [
            15.981048,
            45.816783
          ],
          [
            15.980901,
            45.816965
          ],
          [
            15.980562,
            45.817357
          ],
          [
            15.980368,
            45.817702
          ],
          [
            15.979912,
            45.818427
          ],
          [
            15.979635,
            45.8189
          ],
          [
            15.979457,
            45.819152
          ],
          [
            15.979365,
            45.819392
          ],
          [
            15.979363,
            45.819522
          ],
          [
            15.979383,
            45.81963
          ],
          [
            15.97944,
            45.820011
          ],
          [
            15.979413,
            45.820144
          ],
          [
            15.979413,
            45.820144
          ],
          [
            15.979493,
            45.820373
          ],
          [
            15.979534,
            45.820556
          ],
          [
            15.97978,
            45.821898
          ],
          [
            15.979834,
            45.822266
          ],
          [
            15.979814,
            45.822334
          ],
          [
            15.979814,
            45.822334
          ],
          [
            15.979956,
            45.822996
          ],
          [
            15.980136,
            45.823341
          ],
          [
            15.980365,
            45.823984
          ],
          [
            15.980439,
            45.824506
          ],
          [
            15.980447,
            45.82481
          ],
          [
            15.980369,
            45.825268
          ],
          [
            15.98002,
            45.826355
          ],
          [
            15.979656,
            45.827496
          ],
          [
            15.979505,
            45.827978
          ],
          [
            15.979448,
            45.828057
          ],
          [
            15.979448,
            45.828057
          ],
          [
            15.979429,
            45.828216
          ],
          [
            15.979328,
            45.828476
          ],
          [
            15.979206,
            45.828649
          ],
          [
            15.979107,
            45.828766
          ],
          [
            15.978729,
            45.829214
          ],
          [
            15.978477,
            45.82949
          ],
          [
            15.978279,
            45.829731
          ],
          [
            15.978161,
            45.829923
          ],
          [
            15.978124,
            45.830025
          ],
          [
            15.978056,
            45.830249
          ],
          [
            15.978,
            45.830964
          ],
          [
            15.978024,
            45.831824
          ],
          [
            15.978024,
            45.831824
          ],
          [
            15.978039,
            45.832782
          ],
          [
            15.978064,
            45.833687
          ],
          [
            15.977993,
            45.834184
          ],
          [
            15.977461,
            45.836471
          ],
          [
            15.977461,
            45.836471
          ],
          [
            15.977341,
            45.837156
          ],
          [
            15.977096,
            45.837826
          ],
          [
            15.976649,
            45.838712
          ],
          [
            15.975923,
            45.840026
          ],
          [
            15.975796,
            45.840232
          ],
          [
            15.975663,
            45.840465
          ],
          [
            15.97549,
            45.840696
          ],
          [
            15.974783,
            45.841664
          ]
        ]
      },
      "properties": {}
    }
  ]
}