{
  "type": "FeatureCollection",
  "features": [
    {
      "type": "Feature",
      "geometry": {
        "type": "LineString",
        "coordinates": [
          [
            15.974944,
            45.841343
          ],
          [
            15.975068,
            45.841216
          ],
          [
            15.975384,
            45.840789
          ],
          [
            15.975672,
            45.84036
          ],
          [
            15.975875,
            45.840001
          ],
          [
            15.976101,
            45.839586
          ],
          [
            15.97635,
            45.839201
          ],
          [
            15.976553,
            45.838842
          ],
          [
            15.976852,
            45.838269
          ],
          [
            15.976965,
            45.838019
          ],
          [
            15.977092,
            45.837716
          ],
          [
            15.977362,
            45.836861
          ],
          [
            15.977362,
            45.836861
          ],
          [
            15.97741,
            45.836608
          ],
          [
            15.977521,
            45.836125
          ],
          [
            15.977628,
            45.83563
          ],
          [
            15.977778,
            45.834999
          ],
          [
            15.977879,
            45.834563
          ],
          [
            15.977995,
            45.833957
          ],
          [
            15.978009,
            45.833546
          ],
          [
            15.977985,
            45.831966
          ],
          [
            15.977985,
            45.831966
          ],
          [
            15.977988,
            45.831342
          ],
          [
            15.977972,
            45.830689
          ],
          [
            15.977986,
            45.830369
          ],
          [
            15.978023,
            45.830182
          ],
          [
            15.978122,
            45.829967
          ],
          [
            15.978176,
            45.829836
          ],
          [
            15.978337,
            45.829613
          ],
          [
            15.978445,
            45.829475
          ],
          [
            15.978547,
            45.829369
          ],
          [
            15.978851,
            45.829035
          ],
          [
            15.979235,
            45.82856
          ],
          [
            15.979369,
            45.828289
          ],
          [
            15.979568,
            45.827644
          ],
          [
            15.979568,
            45.827644
          ],
          [
            15.97972,
            45.827162
          ],
          [
            15.979988,
            45.82634
          ],
          [
            15.980184,
            45.82569
          ],
          [
            15.980371,
            45.825047
          ],
          [
            15.980402,
            45.824699
          ],
          [
            15.980385,
            45.82437
          ],
          [
            15.980324,
            45.823977
          ],
          [
            15.980236,
            45.823677
          ],
          [
            15.980105,
            45.82341
          ],
          [
            15.980057,
            45.8233
          ],
          [
            15.979949,
            45.823068
          ],
          [
            15.979903,
            45.822906
          ],
          [
            15.979853,
            45.822556
          ],
          [
            15.979853,
            45.822556
          ],
          [
            15.979823,
            45.822495
          ],
          [
            15.97969,
            45.821728
          ],
          [
            15.979614,
            45.821421
          ],
          [
            15.979593,
            45.821262
          ],
          [
            15.979561,
            45.820968
          ],
          [
            15.979504,
            45.820593
          ],
          [
            15.979412,
            45.820099
          ],
          [
            15.979387,
            45.819921
          ],
          [
            15.979254,
            45.819784
          ],
          [
            15.979254,
            45.819784
          ],
          [
            15.979323,
            45.819703
          ],
          [
            15.979326,
            45.819624
          ],
          [
            15.979316,
            45.819587
          ],
          [
            15.979316,
            45.819496
          ],
          [
            15.979314,
            45.819444
          ],
          [
            15.979333,
            45.819286
          ],
          [
            15.979866,
            45.818362
          ],
          [
            15.980454,
            45.817404
          ],
          [
            15.980778,
            45.817002
          ],
          [
            15.980945,
            45.816797
          ],
          [
            15.981106,
            45.816567
          ],
          [
            15.981369,
            45.816057
          ],
          [
            15.981674,
            45.815404
          ],
          [
            15.9818,
            45.815147
          ],
          [
            15.981906,
            45.814963
          ],
          [
            15.981983,
            45.814862
          ],
          [
            15.982043,
            45.814795
          ],
          [
            15.982199,
            45.814689
          ],
          [
            15.982575,
            45.814462
          ],
          [
            15.983019,
            45.814192
          ],
          [
            15.98322,
            45.814061
          ],
          [
            15.983298,
            45.813959
          ],
          [
            15.983385,
            45.813077
          ],
          [
            15.983433,
            45.81283
          ],
          [
            15.983433,
            45.81283
          ],
          [
            15.983385,
            45.812798
          ],
          [
            15.983415,
            45.81258
          ],
          [
            15.983457,
            45.812457
          ],
          [
            15.983505,
            45.812392
          ],
          [
            15.983505,
            45.812301
          ],
          [
            15.983466,
            45.812255
          ],
          [
            15.983399,
            45.812212
          ],
          [
            15.983326,
            45.81219
          ],
          [
            15.983229,
            45.812184
          ],
          [
            15.979059,
            45.812471
          ],
          [
            15.978891,
            45.812488
          ],
          [
            15.977506,
            45.812875
          ],
          [
            15.97714,
            45.812952
          ],
          [
            15.976878,
            45.812975
          ],
          [
            15.976698,
            45.813
          ],
          [
            15.97662,
            45.813011
          ],
          [
            15.976611,
            45.813013
          ],
          [
            15.976505,
            45.813027
          ],
          [
            15.976443,
            45.813042
          ],
          [
            15.976051,
            45.81307
          ],
          [
            15.974621,
            45.813081
          ],
          [
            15.97311,
            45.813174
          ],
          [
            15.972112,
            45.813195
          ],
          [
            15.970096,
            45.8133
          ],
          [
            15.96979,
            45.813303
          ],
          [
            15.969678,
            45.813247
          ],
          [
            15.969624,
            45.813197
          ],
          [
            15.969588,
            45.813078
          ],
          [
            15.969484,
            45.812489
          ],
          [
            15.969474,
            45.812489
          ],
          [
            15.969386,
            45.811841
          ],
          [
            15.968867,
            45.809333
          ],
          [
            15.968878,
            45.809335
          ],
          [
            15.96879,
            45.80912
          ],
          [
            15.966744,
            45.80612
          ],
          [
            15.966604,
            45.805964
          ],
          [
            15.966604,
            45.805964
          ],
          [
            15.966616,
            45.805956
          ],
          [
            15.966487,
            45.805747
          ],
          [
            15.964541,
            45.802896
          ],
          [
            15.964327,
            45.802581
          ],
          [
            15.964203,
            45.80243
          ],
          [
            15.964208,
            45.802432
          ],
          [
            15.964136,
            45.80229
          ],
          [
            15.961705,
            45.798715
          ],
          [
            15.961709,
            45.798714
          ],
          [
            15.961127,
            45.797873
          ],
          [
            15.960194,
            45.79651
          ],
          [
            15.960185,
            45.796513
          ],
          [
            15.959934,
            45.796124
          ],
          [
            15.958061,
            45.793393
          ],
          [
            15.958061,
            45.793393
          ],
          [
            15.957656,
            45.79278
          ],
          [
            15.956029,
            45.790392
          ],
          [
            15.956029,
            45.790392
          ],
          [
            15.955914,
            45.790212
          ],
          [
            15.954737,
            45.788494
          ],
          [
            15.954741,
            45.788493
          ],
          [
            15.953891,
            45.78728
          ],
          [
            15.953794,
            45.787177
          ],
          [
            15.953654,
            45.787112
          ],
          [
            15.953407,
            45.786997
          ],
          [
            15.953138,
            45.786898
          ],
          [
            15.952469,
            45.786764
          ],
          [
            15.952366,
            45.786778
          ],
          [
            15.952366,
            45.786778
          ],
          [
            15.952331,
            45.786751
          ],
          [
            15.951926,
            45.786599
          ],
          [
            15.951697,
            45.786365
          ],
          [
            15.951614,
            45.786033
          ],
          [
            15.951695,
            45.785217
          ],
          [
            15.951946,
            45.783878
          ],
          [
            15.952239,
            45.782325
          ],
          [
            15.952475,
            45.780936
          ],
          [
            15.952657,
            45.780054
          ],
          [
            15.952726,
            45.779688
          ],
          [
            15.952782,
            45.779154
          ],
          [
            15.952779,
            45.778499
          ],
          [
            15.952803,
            45.777672
          ],
          [
            15.952803,
            45.777672
          ],
          [
            15.952777,
            45.777624
          ],
          [
            15.952793,
            45.777544
          ],
          [
            15.952916,
            45.777416
          ],
          [
            15.953199,
            45.777195
          ],
          [
            15.95456,
            45.777142
          ],
          [
            15.956662,
            45.777104
          ],
          [
            15.956772,
            45.777115
          ],
          [
            15.956772,
            45.777115
          ],
          [
            15.957155,
            45.777094
          ],
          [
            15.958361,
            45.777057
          ],
          [
            15.960207,
            45.777021
          ],
          [
            15.961939,
            45.77704
          ],
          [
            15.965177,
            45.77709
          ],
          [
            15.965216,
            45.77713
          ],
          [
            15.965216,
            45.77713
          ],
          [
            15.965299,
            45.777093
          ],
          [
            15.968359,
            45.777181
          ],
          [
            15.971358,
            45.777283
          ],
          [
            15.971468,
            45.777288
          ],
          [
            15.971457,
            45.777289
          ],
          [
            15.979522,
            45.777486
          ],
          [
            15.97959,
            45.777532
          ],
          [
            15.979589,
            45.777529
          ],
          [
            15.979606,
            45.7775
          ],
          [
            15.983729,
            45.777602
          ],
          [
            15.986631,
            45.777686
          ],
          [
            15.986675,
            45.777699
          ],
          [
            15.986805,
            45.777694
          ],
          [
            15.986968,
            45.777697
          ],
          [
            15.987402,
            45.777721
          ],
          [
            15.990016,
            45.777786
          ],
          [
            15.991631,
            45.777815
          ],
          [
            15.991551,
            45.777865
          ],
          [
            15.991545,
            45.777868
          ],
          [
            15.991643,
            45.777813
          ],
          [
            15.997854,
            45.777976
          ],
          [
            15.997858,
            45.777981
          ],
          [
            15.998992,
            45.778011
          ],
          [
            16.000907,
            45.778069
          ]
        ]
      },
      "properties": {}
    }
  ]
}