{
  "type": "FeatureCollection",
  "features": [
    {
      "type": "Feature",
      "geometry": {
        "type": "LineString",
        "coordinates": [
          [
            15.938562,
            45.797283
          ],
          [
            15.938657,
            45.797244
          ],
          [
            15.943251,
            45.797678
          ],
          [
            15.943543,
            45.797709
          ],
          [
            15.944087,
            45.797828
          ],
          [
            15.944087,
            45.797828
          ],
          [
            15.945,
            45.797981
          ],
          [
            15.946774,
            45.798286
          ],
          [
            15.947057,
            45.798338
          ],
          [
            15.94729,
            45.798403
          ],
          [
            15.947703,
            45.798534
          ],
          [
            15.948458,
            45.798786
          ],
          [
            15.948447,
            45.79884
          ],
          [
            15.948447,
            45.79884
          ],
          [
            15.948453,
            45.798807
          ],
          [
            15.949742,
            45.799192
          ],
          [
            15.950299,
            45.799316
          ],
          [
            15.95084,
            45.799423
          ],
          [
            15.951106,
            45.799464
          ],
          [
            15.952073,
            45.799615
          ],
          [
            15.953432,
            45.799823
          ],
          [
            15.953796,
            45.799876
          ],
          [
            15.954257,
            45.799948
          ],
          [
            15.954644,
            45.800031
          ],
          [
            15.954835,
            45.800044
          ],
          [
            15.954835,
            45.800044
          ],
          [
            15.954955,
            45.800092
          ],
          [
            15.955688,
            45.800263
          ],
          [
            15.956195,
            45.8004
          ],
          [
            15.956874,
            45.800611
          ],
          [
            15.957367,
            45.800783
          ],
          [
            15.959109,
            45.801618
          ],
          [
            15.959217,
            45.801668
          ],
          [
            15.959309,
            45.801701
          ],
          [
            15.959309,
            45.801701
          ],
          [
            15.959432,
            45.801762
          ],
          [
            15.96273,
            45.803335
          ],
          [
            15.962862,
            45.803375
          ],
          [
            15.962981,
            45.803372
          ],
          [
            15.964096,
            45.803295
          ],
          [
            15.964304,
            45.803273
          ],
          [
            15.964306,
            45.803324
          ],
          [
            15.964306,
            45.803324
          ],
          [
            15.964407,
            45.803265
          ],
          [
            15.964591,
            45.803246
          ],
          [
            15.964822,
            45.803259
          ],
          [
            15.964997,
            45.803352
          ],
          [
            15.96511,
            45.803557
          ],
          [
            15.965685,
            45.804379
          ],
          [
            15.966063,
            45.804936
          ],
          [
            15.966293,
            45.805268
          ],
          [
            15.966399,
            45.805357
          ],
          [
            15.966731,
            45.805395
          ],
          [
            15.967081,
            45.805399
          ],
          [
            15.967337,
            45.805402
          ],
          [
            15.967645,
            45.805359
          ],
          [
            15.967645,
            45.805359
          ],
          [
            15.967675,
            45.805414
          ],
          [
            15.969018,
            45.805435
          ],
          [
            15.971477,
            45.805515
          ],
          [
            15.972368,
            45.805541
          ],
          [
            15.973437,
            45.805581
          ],
          [
            15.973663,
            45.805621
          ],
          [
            15.973663,
            45.805621
          ],
          [
            15.974033,
            45.805557
          ],
          [
            15.974858,
            45.805585
          ],
          [
            15.976135,
            45.805615
          ],
          [
            15.976379,
            45.80562
          ],
          [
            15.977079,
            45.80564
          ],
          [
            15.977726,
            45.805647
          ],
          [
            15.977819,
            45.805647
          ],
          [
            15.977915,
            45.805608
          ],
          [
            15.977991,
            45.805546
          ],
          [
            15.978008,
            45.805426
          ],
          [
            15.97803,
            45.805319
          ],
          [
            15.978102,
            45.805245
          ],
          [
            15.978185,
            45.805207
          ],
          [
            15.97834,
            45.805192
          ],
          [
            15.978941,
            45.805232
          ],
          [
            15.979197,
            45.805235
          ],
          [
            15.979272,
            45.805218
          ],
          [
            15.979272,
            45.805218
          ],
          [
            15.979295,
            45.805254
          ],
          [
            15.979498,
            45.805265
          ],
          [
            15.980968,
            45.805346
          ],
          [
            15.982573,
            45.805435
          ],
          [
            15.983386,
            45.805465
          ],
          [
            15.983714,
            45.80549
          ],
          [
            15.983765,
            45.805438
          ],
          [
            15.983765,
            45.805438
          ],
          [
            15.983962,
            45.805514
          ],
          [
            15.984045,
            45.805568
          ],
          [
            15.984069,
            45.805649
          ],
          [
            15.984061,
            45.805851
          ],
          [
            15.984017,
            45.806383
          ],
          [
            15.983968,
            45.807039
          ],
          [
            15.983931,
            45.807414
          ],
          [
            15.983942,
            45.807633
          ],
          [
            15.983951,
            45.807709
          ],
          [
            15.984037,
            45.807775
          ],
          [
            15.984188,
            45.807878
          ],
          [
            15.984287,
            45.807942
          ],
          [
            15.984266,
            45.808055
          ],
          [
            15.984266,
            45.808055
          ],
          [
            15.984402,
            45.80801
          ],
          [
            15.984623,
            45.808168
          ],
          [
            15.985229,
            45.808557
          ],
          [
            15.985779,
            45.808922
          ],
          [
            15.986392,
            45.809324
          ],
          [
            15.98652,
            45.809391
          ],
          [
            15.98662,
            45.809415
          ],
          [
            15.987633,
            45.809444
          ],
          [
            15.987633,
            45.809444
          ],
          [
            15.987942,
            45.809452
          ],
          [
            15.988009,
            45.809495
          ],
          [
            15.988084,
            45.809569
          ],
          [
            15.988089,
            45.809633
          ],
          [
            15.988077,
            45.809726
          ],
          [
            15.988098,
            45.809891
          ],
          [
            15.988133,
            45.809925
          ],
          [
            15.988225,
            45.809965
          ],
          [
            15.988473,
            45.809982
          ],
          [
            15.989993,
            45.81005
          ],
          [
            15.990562,
            45.810075
          ],
          [
            15.991025,
            45.810108
          ],
          [
            15.992948,
            45.810275
          ],
          [
            15.993145,
            45.810306
          ],
          [
            15.993587,
            45.810355
          ],
          [
            15.994077,
            45.81043
          ],
          [
            15.994247,
            45.810458
          ],
          [
            15.994284,
            45.810538
          ],
          [
            15.994284,
            45.810538
          ],
          [
            15.994291,
            45.810472
          ],
          [
            15.994445,
            45.810496
          ],
          [
            15.994667,
            45.810523
          ],
          [
            15.995258,
            45.810616
          ],
          [
            15.995933,
            45.81073
          ],
          [
            15.997099,
            45.810964
          ],
          [
            15.997394,
            45.811014
          ],
          [
            15.997451,
            45.811025
          ],
          [
            15.997504,
            45.811024
          ],
          [
            15.997504,
            45.811024
          ],
          [
            15.997531,
            45.811066
          ],
          [
            15.997584,
            45.811065
          ],
          [
            15.998333,
            45.811247
          ],
          [
            15.998941,
            45.811402
          ],
          [
            15.999464,
            45.811544
          ],
          [
            16.000117,
            45.811719
          ],
          [
            16.001278,
            45.81207
          ],
          [
            16.001278,
            45.81207
          ],
          [
            16.001527,
            45.812146
          ],
          [
            16.002045,
            45.812308
          ],
          [
            16.002547,
            45.812471
          ],
          [
            16.004379,
            45.813151
          ],
          [
            16.004503,
            45.813205
          ],
          [
            16.004559,
            45.813211
          ],
          [
            16.004559,
            45.813211
          ],
          [
            16.004855,
            45.813351
          ],
          [
            16.005199,
            45.813478
          ],
          [
            16.005564,
            45.813622
          ],
          [
            16.006092,
            45.813828
          ],
          [
            16.006365,
            45.813933
          ],
          [
            16.008037,
            45.814706
          ],
          [
            16.008037,
            45.814706
          ],
          [
            16.008476,
            45.814924
          ],
          [
            16.008755,
            45.815054
          ],
          [
            16.009185,
            45.815196
          ],
          [
            16.009515,
            45.815273
          ],
          [
            16.009874,
            45.815353
          ],
          [
            16.010166,
            45.81539
          ],
          [
            16.010792,
            45.815426
          ],
          [
            16.011829,
            45.815451
          ],
          [
            16.012783,
            45.815415
          ],
          [
            16.012783,
            45.815415
          ],
          [
            16.012882,
            45.815388
          ],
          [
            16.013906,
            45.815272
          ],
          [
            16.014854,
            45.815088
          ],
          [
            16.015467,
            45.814938
          ],
          [
            16.015913,
            45.814811
          ],
          [
            16.016681,
            45.814561
          ],
          [
            16.016905,
            45.814459
          ],
          [
            16.017149,
            45.814373
          ],
          [
            16.017236,
            45.814348
          ],
          [
            16.017367,
            45.814343
          ],
          [
            16.017565,
            45.814374
          ],
          [
            16.017803,
            45.814418
          ],
          [
            16.017884,
            45.81442
          ],
          [
            16.01795,
            45.814411
          ],
          [
            16.018149,
            45.814318
          ],
          [
            16.018404,
            45.814179
          ]
        ]
      },
      "properties": {}
    }
  ]
}