{
  "type": "FeatureCollection",
  "features": [
    {
      "type": "Feature",
      "geometry": {
        "type": "LineString",
        "coordinates": [
          [
            16.034915,
            45.789396
          ],
          [
            16.035449,
            45.789938
          ],
          [
            16.036258,
            45.790728
          ],
          [
            16.036405,
            45.790727
          ],
          [
            16.036405,
            45.790727
          ],
          [
            16.036516,
            45.790971
          ],
          [
            16.038063,
            45.792495
          ],
          [
            16.038153,
            45.792573
          ],
          [
            16.038153,
            45.792573
          ],
          [
            16.038463,
            45.792945
          ],
          [
            16.038585,
            45.793226
          ],
          [
            16.038611,
            45.79358
          ],
          [
            16.038479,
            45.794358
          ],
          [
            16.038289,
            45.795481
          ],
          [
            16.03815,
            45.796065
          ],
          [
            16.037999,
            45.796365
          ],
          [
            16.03739,
            45.797164
          ],
          [
            16.03739,
            45.797164
          ],
          [
            16.036813,
            45.797705
          ],
          [
            16.036233,
            45.798143
          ],
          [
            16.034438,
            45.799088
          ],
          [
            16.034328,
            45.799168
          ],
          [
            16.034325,
            45.799174
          ],
          [
            16.03341,
            45.799601
          ],
          [
            16.031037,
            45.800823
          ],
          [
            16.031041,
            45.800821
          ],
          [
            16.029876,
            45.801411
          ],
          [
            16.028186,
            45.802263
          ],
          [
            16.027344,
            45.802718
          ],
          [
            16.027344,
            45.802718
          ],
          [
            16.026563,
            45.803067
          ],
          [
            16.026009,
            45.803371
          ],
          [
            16.025555,
            45.803603
          ],
          [
            16.025322,
            45.80372
          ],
          [
            16.024926,
            45.803918
          ],
          [
            16.024619,
            45.804058
          ],
          [
            16.024388,
            45.804142
          ],
          [
            16.024268,
            45.804185
          ],
          [
            16.024091,
            45.804223
          ],
          [
            16.023646,
            45.804343
          ],
          [
            16.023646,
            45.804343
          ],
          [
            16.023512,
            45.804342
          ],
          [
            16.0233,
            45.804352
          ],
          [
            16.0231,
            45.804354
          ],
          [
            16.022913,
            45.804354
          ],
          [
            16.022681,
            45.804341
          ],
          [
            16.02249,
            45.804329
          ],
          [
            16.020691,
            45.804034
          ],
          [
            16.020691,
            45.804034
          ],
          [
            16.020352,
            45.803977
          ],
          [
            16.019689,
            45.803856
          ],
          [
            16.016932,
            45.803402
          ],
          [
            16.016479,
            45.803322
          ],
          [
            16.015651,
            45.803191
          ],
          [
            16.015424,
            45.803151
          ],
          [
            16.01532,
            45.803114
          ],
          [
            16.01532,
            45.803114
          ],
          [
            16.015198,
            45.803105
          ],
          [
            16.015105,
            45.803105
          ],
          [
            16.012906,
            45.802736
          ],
          [
            16.011923,
            45.802574
          ],
          [
            16.011572,
            45.802513
          ],
          [
            16.011459,
            45.802496
          ],
          [
            16.011391,
            45.802453
          ],
          [
            16.011391,
            45.802453
          ],
          [
            16.011257,
            45.802453
          ],
          [
            16.011132,
            45.802431
          ],
          [
            16.010092,
            45.802264
          ],
          [
            16.00877,
            45.802046
          ],
          [
            16.007913,
            45.801912
          ],
          [
            16.007464,
            45.801838
          ],
          [
            16.006728,
            45.801746
          ],
          [
            16.00616,
            45.801682
          ],
          [
            16.005215,
            45.801606
          ],
          [
            16.004911,
            45.801577
          ],
          [
            16.004683,
            45.80157
          ],
          [
            16.004676,
            45.801551
          ],
          [
            16.004673,
            45.801554
          ],
          [
            16.004517,
            45.801554
          ],
          [
            16.000079,
            45.80135
          ],
          [
            16.000079,
            45.80135
          ],
          [
            15.995443,
            45.801141
          ],
          [
            15.99495,
            45.801973
          ],
          [
            15.994951,
            45.801969
          ],
          [
            15.994549,
            45.8027
          ],
          [
            15.993981,
            45.803675
          ],
          [
            15.99382,
            45.803995
          ],
          [
            15.993741,
            45.804136
          ],
          [
            15.993695,
            45.804253
          ],
          [
            15.993635,
            45.804326
          ],
          [
            15.993628,
            45.804386
          ],
          [
            15.993628,
            45.804386
          ],
          [
            15.993531,
            45.80447
          ],
          [
            15.993258,
            45.80495
          ],
          [
            15.992989,
            45.805409
          ],
          [
            15.992751,
            45.805825
          ],
          [
            15.992658,
            45.806006
          ],
          [
            15.992523,
            45.806187
          ],
          [
            15.992416,
            45.806228
          ],
          [
            15.99235,
            45.806237
          ],
          [
            15.99159,
            45.806109
          ],
          [
            15.991435,
            45.806131
          ],
          [
            15.991435,
            45.806131
          ],
          [
            15.991384,
            45.806086
          ],
          [
            15.990599,
            45.805968
          ],
          [
            15.989991,
            45.805903
          ],
          [
            15.989533,
            45.80585
          ],
          [
            15.988088,
            45.805759
          ],
          [
            15.984448,
            45.80557
          ],
          [
            15.984441,
            45.80557
          ],
          [
            15.983327,
            45.805492
          ],
          [
            15.978451,
            45.805236
          ],
          [
            15.978461,
            45.805234
          ],
          [
            15.978233,
            45.805233
          ],
          [
            15.978107,
            45.805309
          ],
          [
            15.978065,
            45.805438
          ],
          [
            15.978054,
            45.805582
          ],
          [
            15.977954,
            45.805648
          ],
          [
            15.977855,
            45.805681
          ],
          [
            15.977777,
            45.805686
          ],
          [
            15.97753,
            45.805668
          ],
          [
            15.977196,
            45.805669
          ],
          [
            15.97674,
            45.805661
          ],
          [
            15.976522,
            45.805698
          ],
          [
            15.97566,
            45.805675
          ],
          [
            15.974485,
            45.805643
          ],
          [
            15.974204,
            45.805643
          ],
          [
            15.974162,
            45.8055
          ],
          [
            15.974162,
            45.8055
          ],
          [
            15.974135,
            45.805633
          ],
          [
            15.973923,
            45.805637
          ],
          [
            15.970686,
            45.805554
          ],
          [
            15.969633,
            45.805525
          ],
          [
            15.968445,
            45.805482
          ],
          [
            15.967517,
            45.805468
          ],
          [
            15.967108,
            45.805447
          ],
          [
            15.9671,
            45.805513
          ],
          [
            15.9671,
            45.805513
          ],
          [
            15.967002,
            45.805442
          ],
          [
            15.965911,
            45.805425
          ],
          [
            15.965367,
            45.805396
          ],
          [
            15.965127,
            45.805397
          ],
          [
            15.964957,
            45.80546
          ],
          [
            15.963915,
            45.806188
          ],
          [
            15.962042,
            45.807564
          ],
          [
            15.962042,
            45.807564
          ],
          [
            15.961795,
            45.807722
          ],
          [
            15.961289,
            45.808006
          ],
          [
            15.960846,
            45.808184
          ],
          [
            15.960406,
            45.808369
          ],
          [
            15.959996,
            45.808523
          ],
          [
            15.959607,
            45.808655
          ],
          [
            15.95915,
            45.808783
          ],
          [
            15.958676,
            45.808907
          ],
          [
            15.95813,
            45.809003
          ],
          [
            15.957868,
            45.809026
          ],
          [
            15.957595,
            45.809044
          ],
          [
            15.957506,
            45.809018
          ],
          [
            15.957506,
            45.809018
          ],
          [
            15.957314,
            45.809051
          ],
          [
            15.957116,
            45.809104
          ],
          [
            15.957029,
            45.80922
          ],
          [
            15.957043,
            45.809633
          ],
          [
            15.957284,
            45.811638
          ],
          [
            15.957452,
            45.812808
          ],
          [
            15.957452,
            45.812808
          ],
          [
            15.957405,
            45.812964
          ],
          [
            15.957346,
            45.813089
          ],
          [
            15.957208,
            45.813167
          ],
          [
            15.957072,
            45.813205
          ],
          [
            15.956876,
            45.813213
          ],
          [
            15.956636,
            45.813214
          ],
          [
            15.956457,
            45.813206
          ],
          [
            15.956295,
            45.813196
          ],
          [
            15.955865,
            45.813145
          ],
          [
            15.95428,
            45.812807
          ],
          [
            15.953776,
            45.812682
          ],
          [
            15.953446,
            45.812611
          ],
          [
            15.952511,
            45.812475
          ],
          [
            15.952511,
            45.812475
          ],
          [
            15.952477,
            45.812499
          ],
          [
            15.952196,
            45.812499
          ],
          [
            15.951069,
            45.812486
          ],
          [
            15.950357,
            45.812475
          ],
          [
            15.949848,
            45.812474
          ],
          [
            15.949469,
            45.812461
          ],
          [
            15.948948,
            45.812462
          ],
          [
            15.948849,
            45.812495
          ],
          [
            15.948849,
            45.812495
          ],
          [
            15.948814,
            45.812462
          ],
          [
            15.948708,
            45.812463
          ],
          [
            15.948098,
            45.812437
          ],
          [
            15.947483,
            45.812445
          ],
          [
            15.94696,
            45.812485
          ],
          [
            15.946764,
            45.812499
          ],
          [
            15.946435,
            45.812564
          ],
          [
            15.946122,
            45.81264
          ],
          [
            15.945714,
            45.812748
          ],
          [
            15.945376,
            45.812834
          ],
          [
            15.94386,
            45.813141
          ],
          [
            15.943199,
            45.813259
          ],
          [
            15.942423,
            45.813399
          ],
          [
            15.941464,
            45.813636
          ],
          [
            15.941464,
            45.813636
          ],
          [
            15.937855,
            45.814473
          ],
          [
            15.936669,
            45.814761
          ],
          [
            15.936123,
            45.814862
          ],
          [
            15.935898,
            45.814867
          ],
          [
            15.9354,
            45.81491
          ],
          [
            15.935151,
            45.814925
          ],
          [
            15.935027,
            45.814955
          ],
          [
            15.934884,
            45.815066
          ],
          [
            15.934749,
            45.81515
          ],
          [
            15.934615,
            45.815246
          ],
          [
            15.93449,
            45.815322
          ],
          [
            15.934369,
            45.815364
          ],
          [
            15.93432,
            45.815378
          ],
          [
            15.934267,
            45.815379
          ],
          [
            15.933924,
            45.8154
          ]
        ]
      },
      "properties": {}
    }
  ]
}