{
  "type": "FeatureCollection",
  "features": [
    {
      "type": "Feature",
      "geometry": {
        "type": "LineString",
        "coordinates": [
          [
            16.028293,
            45.822355
          ],
          [
            16.028193,
            45.822324
          ],
          [
            16.023746,
            45.821366
          ],
          [
            16.022077,
            45.820975
          ],
          [
            16.022077,
            45.820975
          ],
          [
            16.017515,
            45.819936
          ],
          [
            16.01414,
            45.81916
          ],
          [
            16.012275,
            45.818686
          ],
          [
            16.012147,
            45.818619
          ],
          [
            16.012147,
            45.818619
          ],
          [
            16.011941,
            45.818602
          ],
          [
            16.00957,
            45.81805
          ],
          [
            16.007687,
            45.817611
          ],
          [
            16.007569,
            45.817614
          ],
          [
            16.007569,
            45.817614
          ],
          [
            16.00747,
            45.817556
          ],
          [
            16.005559,
            45.817108
          ],
          [
            16.002953,
            45.816536
          ],
          [
            16.002856,
            45.816524
          ],
          [
            16.002856,
            45.816524
          ],
          [
            16.002666,
            45.816472
          ],
          [
            15.9978,
            45.815351
          ],
          [
            15.997632,
            45.815283
          ],
          [
            15.997632,
            45.815283
          ],
          [
            15.997154,
            45.81511
          ],
          [
            15.995196,
            45.81446
          ],
          [
            15.993852,
            45.814076
          ],
          [
            15.993352,
            45.81397
          ],
          [
            15.99133,
            45.81392
          ],
          [
            15.991052,
            45.813842
          ],
          [
            15.991052,
            45.813842
          ],
          [
            15.990911,
            45.813907
          ],
          [
            15.987772,
            45.813798
          ],
          [
            15.986685,
            45.813781
          ],
          [
            15.986537,
            45.813827
          ],
          [
            15.986537,
            45.813827
          ],
          [
            15.986307,
            45.813768
          ],
          [
            15.985273,
            45.813762
          ],
          [
            15.984492,
            45.813747
          ],
          [
            15.984243,
            45.813763
          ],
          [
            15.98398,
            45.813819
          ],
          [
            15.983761,
            45.813895
          ],
          [
            15.983669,
            45.813946
          ],
          [
            15.98349,
            45.813932
          ],
          [
            15.983354,
            45.81388
          ],
          [
            15.983317,
            45.8138
          ],
          [
            15.983382,
            45.812877
          ],
          [
            15.983433,
            45.81283
          ],
          [
            15.983433,
            45.81283
          ],
          [
            15.983385,
            45.812798
          ],
          [
            15.983415,
            45.81258
          ],
          [
            15.983457,
            45.812457
          ],
          [
            15.983505,
            45.812392
          ],
          [
            15.983505,
            45.812301
          ],
          [
            15.983466,
            45.812255
          ],
          [
            15.983399,
            45.812212
          ],
          [
            15.983326,
            45.81219
          ],
          [
            15.983229,
            45.812184
          ],
          [
            15.979059,
            45.812471
          ],
          [
            15.978891,
            45.812488
          ],
          [
            15.977506,
            45.812875
          ],
          [
            15.97714,
            45.812952
          ],
          [
            15.976878,
            45.812975
          ],
          [
            15.976698,
            45.813
          ],
          [
            15.97662,
            45.813011
          ],
          [
            15.97662,
            45.813011
          ],
          [
            15.976341,
            45.813056
          ],
          [
            15.976235,
            45.813064
          ],
          [
            15.975502,
            45.813075
          ],
          [
            15.974553,
            45.813077
          ],
          [
            15.97311,
            45.81318
          ],
          [
            15.97132,
            45.813234
          ],
          [
            15.970426,
            45.813286
          ],
          [
            15.969562,
            45.813303
          ],
          [
            15.968627,
            45.81327
          ],
          [
            15.968627,
            45.81327
          ],
          [
            15.968496,
            45.813275
          ],
          [
            15.96809,
            45.81326
          ],
          [
            15.967519,
            45.813184
          ],
          [
            15.966791,
            45.813071
          ],
          [
            15.965849,
            45.812831
          ],
          [
            15.965836,
            45.812833
          ],
          [
            15.964841,
            45.812588
          ],
          [
            15.964698,
            45.812511
          ],
          [
            15.964726,
            45.812423
          ],
          [
            15.964726,
            45.812423
          ],
          [
            15.964714,
            45.812521
          ],
          [
            15.964636,
            45.812526
          ],
          [
            15.964242,
            45.812412
          ],
          [
            15.963987,
            45.812369
          ],
          [
            15.963676,
            45.812309
          ],
          [
            15.963494,
            45.812288
          ],
          [
            15.963311,
            45.812301
          ],
          [
            15.962634,
            45.812408
          ],
          [
            15.961766,
            45.812593
          ],
          [
            15.96066,
            45.812837
          ],
          [
            15.960229,
            45.812923
          ],
          [
            15.959531,
            45.813052
          ],
          [
            15.95917,
            45.813096
          ],
          [
            15.958818,
            45.813132
          ],
          [
            15.958594,
            45.813143
          ],
          [
            15.957786,
            45.813171
          ],
          [
            15.957786,
            45.813171
          ],
          [
            15.957019,
            45.813206
          ],
          [
            15.956579,
            45.813208
          ],
          [
            15.956238,
            45.813184
          ],
          [
            15.955938,
            45.813161
          ],
          [
            15.954699,
            45.812911
          ],
          [
            15.954368,
            45.812834
          ],
          [
            15.954308,
            45.81281
          ],
          [
            15.954239,
            45.8128
          ],
          [
            15.953918,
            45.812708
          ],
          [
            15.953789,
            45.81268
          ],
          [
            15.953179,
            45.812564
          ],
          [
            15.952887,
            45.812526
          ],
          [
            15.952537,
            45.812523
          ],
          [
            15.952511,
            45.812475
          ],
          [
            15.952511,
            45.812475
          ],
          [
            15.952477,
            45.812499
          ],
          [
            15.952196,
            45.812499
          ],
          [
            15.951069,
            45.812486
          ],
          [
            15.950357,
            45.812475
          ],
          [
            15.949848,
            45.812474
          ],
          [
            15.949469,
            45.812461
          ],
          [
            15.948948,
            45.812462
          ],
          [
            15.948849,
            45.812495
          ],
          [
            15.948849,
            45.812495
          ],
          [
            15.948814,
            45.812462
          ],
          [
            15.948708,
            45.812463
          ],
          [
            15.948098,
            45.812437
          ],
          [
            15.947483,
            45.812445
          ],
          [
            15.94696,
            45.812485
          ],
          [
            15.946764,
            45.812499
          ],
          [
            15.946435,
            45.812564
          ],
          [
            15.946122,
            45.81264
          ],
          [
            15.945714,
            45.812748
          ],
          [
            15.945376,
            45.812834
          ],
          [
            15.94386,
            45.813141
          ],
          [
            15.943199,
            45.813259
          ],
          [
            15.942423,
            45.813399
          ],
          [
            15.941464,
            45.813636
          ],
          [
            15.941464,
            45.813636
          ],
          [
            15.937855,
            45.814473
          ],
          [
            15.936669,
            45.814761
          ],
          [
            15.936123,
            45.814862
          ],
          [
            15.935898,
            45.814867
          ],
          [
            15.9354,
            45.81491
          ],
          [
            15.935151,
            45.814925
          ],
          [
            15.935027,
            45.814955
          ],
          [
            15.934884,
            45.815066
          ],
          [
            15.934749,
            45.81515
          ],
          [
            15.934615,
            45.815246
          ],
          [
            15.93449,
            45.815322
          ],
          [
            15.934369,
            45.815364
          ],
          [
            15.93432,
            45.815378
          ],
          [
            15.934267,
            45.815379
          ],
          [
            15.933924,
            45.8154
          ]
        ]
      },
      "properties": {}
    }
  ]
}