{
  "type": "FeatureCollection",
  "features": [
    {
      "type": "Feature",
      "geometry": {
        "type": "LineString",
        "coordinates": [
          [
            16.037122,
            45.824455
          ],
          [
            16.036907,
            45.824362
          ],
          [
            16.036855,
            45.824324
          ],
          [
            16.036705,
            45.824221
          ],
          [
            16.036546,
            45.82414
          ],
          [
            16.035844,
            45.823984
          ],
          [
            16.033373,
            45.823459
          ],
          [
            16.028293,
            45.822355
          ],
          [
            16.028293,
            45.822355
          ],
          [
            16.028193,
            45.822324
          ],
          [
            16.023746,
            45.821366
          ],
          [
            16.022077,
            45.820975
          ],
          [
            16.022077,
            45.820975
          ],
          [
            16.017515,
            45.819936
          ],
          [
            16.01414,
            45.81916
          ],
          [
            16.012275,
            45.818686
          ],
          [
            16.012147,
            45.818619
          ],
          [
            16.012147,
            45.818619
          ],
          [
            16.011941,
            45.818602
          ],
          [
            16.00957,
            45.81805
          ],
          [
            16.007687,
            45.817611
          ],
          [
            16.007569,
            45.817614
          ],
          [
            16.007569,
            45.817614
          ],
          [
            16.00747,
            45.817556
          ],
          [
            16.005559,
            45.817108
          ],
          [
            16.002953,
            45.816536
          ],
          [
            16.002856,
            45.816524
          ],
          [
            16.002856,
            45.816524
          ],
          [
            16.002666,
            45.816472
          ],
          [
            15.9978,
            45.815351
          ],
          [
            15.997632,
            45.815283
          ],
          [
            15.997632,
            45.815283
          ],
          [
            15.997154,
            45.81511
          ],
          [
            15.995196,
            45.81446
          ],
          [
            15.993852,
            45.814076
          ],
          [
            15.993352,
            45.81397
          ],
          [
            15.99133,
            45.81392
          ],
          [
            15.991052,
            45.813842
          ],
          [
            15.991052,
            45.813842
          ],
          [
            15.990911,
            45.813907
          ],
          [
            15.987772,
            45.813798
          ],
          [
            15.986685,
            45.813781
          ],
          [
            15.986537,
            45.813827
          ],
          [
            15.986537,
            45.813827
          ],
          [
            15.986307,
            45.813768
          ],
          [
            15.985273,
            45.813762
          ],
          [
            15.984492,
            45.813747
          ],
          [
            15.984243,
            45.813763
          ],
          [
            15.98398,
            45.813819
          ],
          [
            15.983761,
            45.813895
          ],
          [
            15.983669,
            45.813946
          ],
          [
            15.98349,
            45.813932
          ],
          [
            15.983354,
            45.81388
          ],
          [
            15.983317,
            45.8138
          ],
          [
            15.983382,
            45.812877
          ],
          [
            15.983433,
            45.81283
          ],
          [
            15.983433,
            45.81283
          ],
          [
            15.983385,
            45.812798
          ],
          [
            15.983415,
            45.81258
          ],
          [
            15.983457,
            45.812457
          ],
          [
            15.983505,
            45.812392
          ],
          [
            15.983505,
            45.812301
          ],
          [
            15.983466,
            45.812255
          ],
          [
            15.983399,
            45.812212
          ],
          [
            15.983326,
            45.81219
          ],
          [
            15.983229,
            45.812184
          ],
          [
            15.979059,
            45.812471
          ],
          [
            15.978891,
            45.812488
          ],
          [
            15.977506,
            45.812875
          ],
          [
            15.97714,
            45.812952
          ],
          [
            15.976878,
            45.812975
          ],
          [
            15.976698,
            45.813
          ],
          [
            15.97662,
            45.813011
          ],
          [
            15.976611,
            45.813013
          ],
          [
            15.976505,
            45.813027
          ],
          [
            15.976443,
            45.813042
          ],
          [
            15.976051,
            45.81307
          ],
          [
            15.974621,
            45.813081
          ],
          [
            15.97311,
            45.813174
          ],
          [
            15.972112,
            45.813195
          ],
          [
            15.970096,
            45.8133
          ],
          [
            15.96979,
            45.813303
          ],
          [
            15.969678,
            45.813247
          ],
          [
            15.969624,
            45.813197
          ],
          [
            15.969588,
            45.813078
          ],
          [
            15.969484,
            45.812489
          ],
          [
            15.969474,
            45.812489
          ],
          [
            15.969386,
            45.811841
          ],
          [
            15.968867,
            45.809333
          ],
          [
            15.968878,
            45.809335
          ],
          [
            15.96879,
            45.80912
          ],
          [
            15.966744,
            45.80612
          ],
          [
            15.966604,
            45.805964
          ],
          [
            15.966604,
            45.805964
          ],
          [
            15.966445,
            45.805695
          ],
          [
            15.96487,
            45.803382
          ],
          [
            15.964762,
            45.803326
          ],
          [
            15.963513,
            45.803402
          ],
          [
            15.963513,
            45.803402
          ],
          [
            15.963124,
            45.803449
          ],
          [
            15.9629,
            45.803455
          ],
          [
            15.962702,
            45.803417
          ],
          [
            15.959664,
            45.801957
          ],
          [
            15.959664,
            45.801957
          ],
          [
            15.957554,
            45.800965
          ],
          [
            15.957303,
            45.800843
          ],
          [
            15.957066,
            45.800766
          ],
          [
            15.956722,
            45.800645
          ],
          [
            15.955672,
            45.800343
          ],
          [
            15.954624,
            45.800105
          ],
          [
            15.954486,
            45.800086
          ],
          [
            15.954478,
            45.800106
          ],
          [
            15.954478,
            45.800106
          ],
          [
            15.954478,
            45.8001
          ],
          [
            15.95437,
            45.800056
          ],
          [
            15.951131,
            45.799545
          ],
          [
            15.950283,
            45.79939
          ],
          [
            15.949534,
            45.799208
          ],
          [
            15.948626,
            45.798945
          ],
          [
            15.947583,
            45.798583
          ],
          [
            15.947028,
            45.798426
          ],
          [
            15.947028,
            45.798426
          ],
          [
            15.94677,
            45.798365
          ],
          [
            15.945652,
            45.798156
          ],
          [
            15.943426,
            45.797771
          ],
          [
            15.942286,
            45.797669
          ],
          [
            15.942276,
            45.797722
          ],
          [
            15.942276,
            45.797722
          ],
          [
            15.942286,
            45.797669
          ],
          [
            15.941967,
            45.797629
          ],
          [
            15.939152,
            45.797383
          ],
          [
            15.939043,
            45.797372
          ],
          [
            15.938933,
            45.797361
          ],
          [
            15.938783,
            45.79735
          ],
          [
            15.93841,
            45.797311
          ],
          [
            15.938,
            45.797283
          ],
          [
            15.937737,
            45.797255
          ],
          [
            15.937643,
            45.797255
          ]
        ]
      },
      "properties": {}
    }
  ]
}