{
  "type": "FeatureCollection",
  "features": [
    {
      "type": "Feature",
      "geometry": {
        "type": "LineString",
        "coordinates": [
          [
            15.996426,
            45.814724
          ],
          [
            15.99665,
            45.814446
          ],
          [
            15.996692,
            45.814317
          ],
          [
            15.996581,
            45.814164
          ],
          [
            15.995657,
            45.813118
          ],
          [
            15.995266,
            45.812653
          ],
          [
            15.99498,
            45.812316
          ],
          [
            15.994794,
            45.812277
          ],
          [
            15.994794,
            45.812277
          ],
          [
            15.994792,
            45.812128
          ],
          [
            15.994332,
            45.811569
          ],
          [
            15.993945,
            45.811117
          ],
          [
            15.993529,
            45.810662
          ],
          [
            15.993418,
            45.810509
          ],
          [
            15.993289,
            45.810384
          ],
          [
            15.993172,
            45.810354
          ],
          [
            15.99299,
            45.810328
          ],
          [
            15.992755,
            45.810302
          ],
          [
            15.992276,
            45.810265
          ],
          [
            15.992276,
            45.810265
          ],
          [
            15.991956,
            45.810225
          ],
          [
            15.990913,
            45.810136
          ],
          [
            15.989849,
            45.81007
          ],
          [
            15.989068,
            45.810049
          ],
          [
            15.988361,
            45.810017
          ],
          [
            15.988361,
            45.810017
          ],
          [
            15.988165,
            45.810031
          ],
          [
            15.988089,
            45.810094
          ],
          [
            15.988036,
            45.810185
          ],
          [
            15.988049,
            45.810268
          ],
          [
            15.988044,
            45.810386
          ],
          [
            15.988014,
            45.810429
          ],
          [
            15.987913,
            45.810495
          ],
          [
            15.987745,
            45.810512
          ],
          [
            15.987286,
            45.810498
          ],
          [
            15.98692,
            45.810483
          ],
          [
            15.986635,
            45.810471
          ],
          [
            15.986487,
            45.81042
          ],
          [
            15.986377,
            45.810319
          ],
          [
            15.986358,
            45.810211
          ],
          [
            15.986382,
            45.81002
          ],
          [
            15.986387,
            45.809902
          ],
          [
            15.986407,
            45.809737
          ],
          [
            15.986423,
            45.80956
          ],
          [
            15.986394,
            45.809466
          ],
          [
            15.986313,
            45.809374
          ],
          [
            15.985022,
            45.808528
          ],
          [
            15.984578,
            45.808252
          ],
          [
            15.984211,
            45.808004
          ],
          [
            15.983977,
            45.807842
          ],
          [
            15.9839,
            45.807762
          ],
          [
            15.983825,
            45.807694
          ],
          [
            15.983795,
            45.80764
          ],
          [
            15.983823,
            45.807461
          ],
          [
            15.983846,
            45.807309
          ],
          [
            15.983858,
            45.807028
          ],
          [
            15.983796,
            45.806868
          ],
          [
            15.983796,
            45.806868
          ],
          [
            15.983874,
            45.806857
          ],
          [
            15.984008,
            45.80567
          ],
          [
            15.983942,
            45.805582
          ],
          [
            15.983894,
            45.805556
          ],
          [
            15.98375,
            45.805524
          ],
          [
            15.978461,
            45.805234
          ],
          [
            15.978461,
            45.805234
          ],
          [
            15.978355,
            45.805236
          ],
          [
            15.97822,
            45.805235
          ],
          [
            15.978134,
            45.80526
          ],
          [
            15.97809,
            45.805337
          ],
          [
            15.978074,
            45.805424
          ],
          [
            15.977934,
            45.808324
          ],
          [
            15.977823,
            45.809171
          ],
          [
            15.977823,
            45.809171
          ],
          [
            15.977494,
            45.811196
          ],
          [
            15.977476,
            45.811503
          ],
          [
            15.977473,
            45.811672
          ],
          [
            15.977498,
            45.81176
          ],
          [
            15.977647,
            45.812628
          ],
          [
            15.97761,
            45.812731
          ],
          [
            15.977599,
            45.812784
          ],
          [
            15.977523,
            45.812846
          ],
          [
            15.977437,
            45.812871
          ],
          [
            15.977248,
            45.812911
          ],
          [
            15.977055,
            45.812937
          ],
          [
            15.976739,
            45.813001
          ],
          [
            15.976456,
            45.81304
          ],
          [
            15.976546,
            45.813027
          ],
          [
            15.976611,
            45.813013
          ],
          [
            15.976611,
            45.813013
          ],
          [
            15.976505,
            45.813027
          ],
          [
            15.976443,
            45.813042
          ],
          [
            15.976051,
            45.81307
          ],
          [
            15.974621,
            45.813081
          ],
          [
            15.97311,
            45.813174
          ],
          [
            15.972112,
            45.813195
          ],
          [
            15.970096,
            45.8133
          ],
          [
            15.96979,
            45.813303
          ],
          [
            15.969678,
            45.813247
          ],
          [
            15.969624,
            45.813197
          ],
          [
            15.969588,
            45.813078
          ],
          [
            15.969484,
            45.812489
          ],
          [
            15.969474,
            45.812489
          ],
          [
            15.969386,
            45.811841
          ],
          [
            15.968867,
            45.809333
          ],
          [
            15.968878,
            45.809335
          ],
          [
            15.96879,
            45.80912
          ],
          [
            15.966744,
            45.80612
          ],
          [
            15.966604,
            45.805964
          ],
          [
            15.966604,
            45.805964
          ],
          [
            15.966616,
            45.805956
          ],
          [
            15.966487,
            45.805747
          ],
          [
            15.964541,
            45.802896
          ],
          [
            15.964327,
            45.802581
          ],
          [
            15.964203,
            45.80243
          ],
          [
            15.964203,
            45.80243
          ],
          [
            15.963931,
            45.801955
          ],
          [
            15.962349,
            45.799618
          ],
          [
            15.962363,
            45.799486
          ],
          [
            15.962492,
            45.799416
          ],
          [
            15.962628,
            45.799384
          ],
          [
            15.963091,
            45.799411
          ],
          [
            15.963291,
            45.799403
          ],
          [
            15.96322,
            45.799348
          ],
          [
            15.96322,
            45.799348
          ],
          [
            15.963241,
            45.799416
          ],
          [
            15.967669,
            45.799645
          ],
          [
            15.967658,
            45.799699
          ],
          [
            15.967653,
            45.799702
          ],
          [
            15.967669,
            45.799645
          ],
          [
            15.971146,
            45.799816
          ],
          [
            15.971146,
            45.799816
          ],
          [
            15.973076,
            45.799927
          ],
          [
            15.975453,
            45.80006
          ],
          [
            15.975453,
            45.80006
          ],
          [
            15.977857,
            45.800171
          ],
          [
            15.980091,
            45.800299
          ],
          [
            15.980091,
            45.800299
          ],
          [
            15.984925,
            45.800546
          ],
          [
            15.98492,
            45.800556
          ],
          [
            15.984928,
            45.800558
          ],
          [
            15.984912,
            45.800548
          ],
          [
            15.988918,
            45.80075
          ],
          [
            15.988884,
            45.800768
          ],
          [
            15.988884,
            45.800768
          ],
          [
            15.988893,
            45.800754
          ],
          [
            15.995109,
            45.801051
          ],
          [
            15.996438,
            45.801113
          ],
          [
            15.996429,
            45.801127
          ],
          [
            15.996429,
            45.801127
          ],
          [
            15.996454,
            45.801118
          ],
          [
            15.999859,
            45.80128
          ],
          [
            15.999829,
            45.801317
          ],
          [
            15.999829,
            45.801317
          ],
          [
            15.99985,
            45.801294
          ],
          [
            16.003937,
            45.801492
          ],
          [
            16.00392,
            45.80152
          ],
          [
            16.00392,
            45.80152
          ],
          [
            16.003962,
            45.801488
          ],
          [
            16.004506,
            45.801516
          ],
          [
            16.005079,
            45.801554
          ],
          [
            16.005545,
            45.801592
          ],
          [
            16.006097,
            45.801646
          ],
          [
            16.006758,
            45.801709
          ],
          [
            16.007231,
            45.801773
          ],
          [
            16.008647,
            45.801992
          ],
          [
            16.010502,
            45.802292
          ],
          [
            16.010506,
            45.80231
          ],
          [
            16.010498,
            45.802312
          ],
          [
            16.011169,
            45.80242
          ],
          [
            16.014683,
            45.803022
          ],
          [
            16.014683,
            45.803022
          ],
          [
            16.01716,
            45.803409
          ],
          [
            16.019917,
            45.803884
          ],
          [
            16.019924,
            45.803881
          ],
          [
            16.021538,
            45.804137
          ],
          [
            16.022087,
            45.804229
          ],
          [
            16.022545,
            45.804289
          ],
          [
            16.023255,
            45.804339
          ],
          [
            16.023255,
            45.804339
          ],
          [
            16.023604,
            45.804291
          ],
          [
            16.023899,
            45.804243
          ],
          [
            16.024257,
            45.804148
          ],
          [
            16.024538,
            45.804056
          ],
          [
            16.026014,
            45.803338
          ],
          [
            16.026376,
            45.803158
          ],
          [
            16.026812,
            45.802961
          ],
          [
            16.026812,
            45.802961
          ],
          [
            16.027013,
            45.802829
          ],
          [
            16.028154,
            45.802242
          ],
          [
            16.02939,
            45.801622
          ],
          [
            16.029936,
            45.801338
          ],
          [
            16.030538,
            45.801072
          ],
          [
            16.030529,
            45.801076
          ],
          [
            16.030868,
            45.800871
          ],
          [
            16.034769,
            45.798843
          ]
        ]
      },
      "properties": {}
    }
  ]
}