{
  "type": "FeatureCollection",
  "features": [
    {
      "type": "Feature",
      "geometry": {
        "type": "LineString",
        "coordinates": [
          [
            15.953324,
            45.786301
          ],
          [
            15.953601,
            45.786652
          ],
          [
            15.953608,
            45.786768
          ],
          [
            15.953564,
            45.786846
          ],
          [
            15.953447,
            45.786907
          ],
          [
            15.953292,
            45.786922
          ],
          [
            15.95284,
            45.786842
          ],
          [
            15.952525,
            45.786775
          ],
          [
            15.952366,
            45.786778
          ],
          [
            15.952366,
            45.786778
          ],
          [
            15.952331,
            45.786751
          ],
          [
            15.951926,
            45.786599
          ],
          [
            15.951697,
            45.786365
          ],
          [
            15.951614,
            45.786033
          ],
          [
            15.951695,
            45.785217
          ],
          [
            15.951946,
            45.783878
          ],
          [
            15.952239,
            45.782325
          ],
          [
            15.952475,
            45.780936
          ],
          [
            15.952657,
            45.780054
          ],
          [
            15.952726,
            45.779688
          ],
          [
            15.952782,
            45.779154
          ],
          [
            15.952779,
            45.778499
          ],
          [
            15.952803,
            45.777672
          ],
          [
            15.952803,
            45.777672
          ],
          [
            15.952777,
            45.777624
          ],
          [
            15.952793,
            45.777544
          ],
          [
            15.952916,
            45.777416
          ],
          [
            15.953199,
            45.777195
          ],
          [
            15.95456,
            45.777142
          ],
          [
            15.956662,
            45.777104
          ],
          [
            15.956772,
            45.777115
          ],
          [
            15.956772,
            45.777115
          ],
          [
            15.957155,
            45.777094
          ],
          [
            15.958361,
            45.777057
          ],
          [
            15.960207,
            45.777021
          ],
          [
            15.961939,
            45.77704
          ],
          [
            15.965177,
            45.77709
          ],
          [
            15.965216,
            45.77713
          ],
          [
            15.965216,
            45.77713
          ],
          [
            15.965299,
            45.777093
          ],
          [
            15.968359,
            45.777181
          ],
          [
            15.971358,
            45.777283
          ],
          [
            15.971468,
            45.777288
          ],
          [
            15.971457,
            45.777289
          ],
          [
            15.979522,
            45.777486
          ],
          [
            15.97959,
            45.777532
          ],
          [
            15.979589,
            45.777529
          ],
          [
            15.979606,
            45.7775
          ],
          [
            15.983729,
            45.777602
          ],
          [
            15.986631,
            45.777686
          ],
          [
            15.986675,
            45.777699
          ],
          [
            15.986805,
            45.777694
          ],
          [
            15.986968,
            45.777697
          ],
          [
            15.987402,
            45.777721
          ],
          [
            15.990016,
            45.777786
          ],
          [
            15.991631,
            45.777815
          ],
          [
            15.991551,
            45.777865
          ],
          [
            15.991545,
            45.777868
          ],
          [
            15.991643,
            45.777813
          ],
          [
            15.997854,
            45.777976
          ],
          [
            15.997858,
            45.777981
          ],
          [
            16.000301,
            45.77805
          ],
          [
            16.000919,
            45.778061
          ],
          [
            16.000886,
            45.778085
          ],
          [
            16.000886,
            45.778085
          ],
          [
            16.000932,
            45.778066
          ],
          [
            16.001415,
            45.77807
          ],
          [
            16.001573,
            45.778106
          ],
          [
            16.001657,
            45.77812
          ],
          [
            16.001785,
            45.778187
          ],
          [
            16.001894,
            45.778289
          ],
          [
            16.001992,
            45.778392
          ],
          [
            16.002013,
            45.778558
          ],
          [
            16.001726,
            45.779448
          ],
          [
            16.001726,
            45.779448
          ],
          [
            16.001673,
            45.77963
          ],
          [
            16.001629,
            45.779708
          ],
          [
            16.001508,
            45.780069
          ],
          [
            16.001379,
            45.780496
          ],
          [
            16.001307,
            45.780752
          ],
          [
            16.001304,
            45.781103
          ],
          [
            16.001288,
            45.781371
          ],
          [
            16.001313,
            45.78164
          ],
          [
            16.001356,
            45.781966
          ],
          [
            16.001418,
            45.782223
          ],
          [
            16.001453,
            45.782341
          ],
          [
            16.001453,
            45.782341
          ],
          [
            16.001533,
            45.78257
          ],
          [
            16.001883,
            45.783301
          ],
          [
            16.001956,
            45.783414
          ],
          [
            16.002248,
            45.783912
          ],
          [
            16.002653,
            45.784608
          ],
          [
            16.00277,
            45.784819
          ],
          [
            16.002993,
            45.785216
          ],
          [
            16.00318,
            45.785489
          ],
          [
            16.003603,
            45.786248
          ],
          [
            16.003844,
            45.786701
          ],
          [
            16.003954,
            45.786893
          ],
          [
            16.004014,
            45.787008
          ],
          [
            16.004078,
            45.78722
          ],
          [
            16.004119,
            45.787312
          ],
          [
            16.004186,
            45.787633
          ],
          [
            16.004248,
            45.787891
          ],
          [
            16.004271,
            45.788199
          ],
          [
            16.004261,
            45.788804
          ],
          [
            16.004261,
            45.788804
          ],
          [
            16.004177,
            45.789244
          ],
          [
            16.004057,
            45.789657
          ],
          [
            16.00389,
            45.790043
          ],
          [
            16.003454,
            45.790701
          ],
          [
            16.002438,
            45.791978
          ],
          [
            16.002438,
            45.791978
          ],
          [
            16.002198,
            45.792349
          ],
          [
            15.999305,
            45.796068
          ],
          [
            15.999169,
            45.796197
          ],
          [
            15.998879,
            45.796575
          ],
          [
            15.998878,
            45.79662
          ],
          [
            15.998878,
            45.79662
          ],
          [
            15.99877,
            45.796752
          ],
          [
            15.998221,
            45.797478
          ],
          [
            15.997898,
            45.797886
          ],
          [
            15.997432,
            45.798483
          ],
          [
            15.996906,
            45.799153
          ],
          [
            15.996441,
            45.799756
          ],
          [
            15.995966,
            45.800368
          ],
          [
            15.995676,
            45.800752
          ],
          [
            15.994951,
            45.801969
          ],
          [
            15.994951,
            45.801969
          ],
          [
            15.994549,
            45.8027
          ],
          [
            15.993981,
            45.803675
          ],
          [
            15.99382,
            45.803995
          ],
          [
            15.993741,
            45.804136
          ],
          [
            15.993695,
            45.804253
          ],
          [
            15.993635,
            45.804326
          ],
          [
            15.993628,
            45.804386
          ],
          [
            15.993628,
            45.804386
          ],
          [
            15.993505,
            45.804519
          ],
          [
            15.993457,
            45.804584
          ],
          [
            15.993381,
            45.804731
          ],
          [
            15.992989,
            45.805402
          ],
          [
            15.992649,
            45.806027
          ],
          [
            15.992439,
            45.806355
          ],
          [
            15.99219,
            45.806831
          ],
          [
            15.992086,
            45.806975
          ],
          [
            15.991991,
            45.807105
          ],
          [
            15.991878,
            45.80727
          ],
          [
            15.991765,
            45.807435
          ],
          [
            15.991703,
            45.807904
          ],
          [
            15.991698,
            45.808028
          ],
          [
            15.991698,
            45.808113
          ],
          [
            15.991698,
            45.808113
          ],
          [
            15.991668,
            45.808331
          ],
          [
            15.991714,
            45.808487
          ],
          [
            15.991829,
            45.808653
          ],
          [
            15.992073,
            45.808937
          ],
          [
            15.993114,
            45.81011
          ],
          [
            15.993648,
            45.810743
          ],
          [
            15.99386,
            45.810915
          ],
          [
            15.99386,
            45.810915
          ],
          [
            15.993927,
            45.811061
          ],
          [
            15.994067,
            45.81121
          ],
          [
            15.994334,
            45.81153
          ],
          [
            15.994614,
            45.811842
          ],
          [
            15.996521,
            45.814055
          ],
          [
            15.996521,
            45.814055
          ],
          [
            15.996676,
            45.814216
          ],
          [
            15.996724,
            45.814241
          ],
          [
            15.997382,
            45.814475
          ],
          [
            15.99749,
            45.814524
          ],
          [
            15.997532,
            45.814577
          ],
          [
            15.997499,
            45.814692
          ],
          [
            15.99741,
            45.814841
          ],
          [
            15.997343,
            45.81498
          ],
          [
            15.9974,
            45.815082
          ],
          [
            15.997559,
            45.81517
          ],
          [
            15.997764,
            45.815233
          ],
          [
            16.003062,
            45.81645
          ],
          [
            16.003352,
            45.816526
          ],
          [
            16.003453,
            45.816551
          ],
          [
            16.003533,
            45.816592
          ],
          [
            16.003533,
            45.816592
          ],
          [
            16.003752,
            45.816607
          ],
          [
            16.008159,
            45.817623
          ],
          [
            16.008156,
            45.817625
          ],
          [
            16.012255,
            45.818578
          ],
          [
            16.014085,
            45.819036
          ],
          [
            16.014089,
            45.81903
          ],
          [
            16.015128,
            45.819288
          ],
          [
            16.017858,
            45.819921
          ],
          [
            16.020959,
            45.820631
          ],
          [
            16.022278,
            45.820928
          ],
          [
            16.022726,
            45.821041
          ],
          [
            16.022729,
            45.821047
          ],
          [
            16.022722,
            45.821022
          ],
          [
            16.022722,
            45.821022
          ],
          [
            16.022874,
            45.821085
          ],
          [
            16.023636,
            45.821265
          ],
          [
            16.027491,
            45.822078
          ],
          [
            16.027491,
            45.822078
          ],
          [
            16.029602,
            45.822517
          ],
          [
            16.032378,
            45.823124
          ],
          [
            16.034731,
            45.823614
          ],
          [
            16.036179,
            45.823938
          ],
          [
            16.037148,
            45.824134
          ],
          [
            16.037681,
            45.824261
          ],
          [
            16.037868,
            45.824267
          ],
          [
            16.037995,
            45.824236
          ],
          [
            16.038156,
            45.824194
          ],
          [
            16.038299,
            45.824181
          ],
          [
            16.038407,
            45.824225
          ],
          [
            16.038494,
            45.824297
          ],
          [
            16.038503,
            45.824373
          ],
          [
            16.038429,
            45.824481
          ],
          [
            16.038291,
            45.824559
          ],
          [
            16.03822,
            45.824594
          ],
          [
            16.038146,
            45.824618
          ],
          [
            16.037999,
            45.824619
          ],
          [
            16.037122,
            45.824455
          ]
        ]
      },
      "properties": {}
    }
  ]
}