{
  "type": "FeatureCollection",
  "features": [
    {
      "type": "Feature",
      "geometry": {
        "type": "LineString",
        "coordinates": [
          [
            15.934931,
            45.815001
          ],
          [
            15.935038,
            45.814902
          ],
          [
            15.935167,
            45.814839
          ],
          [
            15.935297,
            45.814833
          ],
          [
            15.935513,
            45.814836
          ],
          [
            15.935759,
            45.814809
          ],
          [
            15.936073,
            45.814785
          ],
          [
            15.936591,
            45.81468
          ],
          [
            15.938314,
            45.814305
          ],
          [
            15.938878,
            45.814175
          ],
          [
            15.940265,
            45.81384
          ],
          [
            15.941619,
            45.81353
          ],
          [
            15.94213,
            45.8134
          ],
          [
            15.942623,
            45.8133
          ],
          [
            15.942918,
            45.813253
          ],
          [
            15.943049,
            45.813247
          ],
          [
            15.943049,
            45.813247
          ],
          [
            15.943275,
            45.813197
          ],
          [
            15.943411,
            45.813158
          ],
          [
            15.943576,
            45.813129
          ],
          [
            15.943768,
            45.813096
          ],
          [
            15.943994,
            45.813051
          ],
          [
            15.944258,
            45.812989
          ],
          [
            15.945306,
            45.812779
          ],
          [
            15.94568,
            45.812682
          ],
          [
            15.945804,
            45.812645
          ],
          [
            15.946249,
            45.812525
          ],
          [
            15.946705,
            45.812442
          ],
          [
            15.947213,
            45.812385
          ],
          [
            15.947768,
            45.81236
          ],
          [
            15.94813,
            45.812368
          ],
          [
            15.948322,
            45.812432
          ],
          [
            15.948322,
            45.812432
          ],
          [
            15.948577,
            45.812384
          ],
          [
            15.949757,
            45.812396
          ],
          [
            15.95091,
            45.812404
          ],
          [
            15.951703,
            45.812418
          ],
          [
            15.951958,
            45.81246
          ],
          [
            15.951958,
            45.81246
          ],
          [
            15.952212,
            45.812412
          ],
          [
            15.952468,
            45.812422
          ],
          [
            15.952963,
            45.81247
          ],
          [
            15.953695,
            45.81259
          ],
          [
            15.954432,
            45.812779
          ],
          [
            15.954989,
            45.812897
          ],
          [
            15.95574,
            45.813039
          ],
          [
            15.956173,
            45.813102
          ],
          [
            15.956489,
            45.81313
          ],
          [
            15.956652,
            45.81314
          ],
          [
            15.956774,
            45.813143
          ],
          [
            15.95682,
            45.813117
          ],
          [
            15.95682,
            45.813117
          ],
          [
            15.956973,
            45.813134
          ],
          [
            15.95714,
            45.813157
          ],
          [
            15.957604,
            45.813144
          ],
          [
            15.95796,
            45.813121
          ],
          [
            15.958318,
            45.81311
          ],
          [
            15.958854,
            45.813075
          ],
          [
            15.959193,
            45.813041
          ],
          [
            15.959582,
            45.812993
          ],
          [
            15.960893,
            45.812727
          ],
          [
            15.961752,
            45.812549
          ],
          [
            15.962837,
            45.812321
          ],
          [
            15.962977,
            45.812295
          ],
          [
            15.963081,
            45.812333
          ],
          [
            15.963081,
            45.812333
          ],
          [
            15.963169,
            45.812269
          ],
          [
            15.963316,
            45.812268
          ],
          [
            15.963666,
            45.812271
          ],
          [
            15.963904,
            45.812316
          ],
          [
            15.964231,
            45.812381
          ],
          [
            15.964931,
            45.812576
          ],
          [
            15.965659,
            45.81278
          ],
          [
            15.966683,
            45.813027
          ],
          [
            15.967434,
            45.813163
          ],
          [
            15.96833,
            45.813253
          ],
          [
            15.969049,
            45.813289
          ],
          [
            15.969413,
            45.813252
          ],
          [
            15.969422,
            45.813251
          ],
          [
            15.969399,
            45.813299
          ],
          [
            15.969396,
            45.813293
          ],
          [
            15.970403,
            45.813251
          ],
          [
            15.971011,
            45.813225
          ],
          [
            15.971824,
            45.81317
          ],
          [
            15.973019,
            45.813134
          ],
          [
            15.974284,
            45.813069
          ],
          [
            15.974452,
            45.813052
          ],
          [
            15.974745,
            45.813044
          ],
          [
            15.975694,
            45.813042
          ],
          [
            15.976134,
            45.813039
          ],
          [
            15.976859,
            45.812952
          ],
          [
            15.977081,
            45.812895
          ],
          [
            15.977339,
            45.812859
          ],
          [
            15.977313,
            45.812908
          ],
          [
            15.977313,
            45.812908
          ],
          [
            15.977385,
            45.812833
          ],
          [
            15.97746,
            45.81281
          ],
          [
            15.977539,
            45.812766
          ],
          [
            15.977576,
            45.812664
          ],
          [
            15.977587,
            45.812519
          ],
          [
            15.977553,
            45.81244
          ],
          [
            15.977514,
            45.812127
          ],
          [
            15.977477,
            45.811957
          ],
          [
            15.977402,
            45.811435
          ],
          [
            15.977745,
            45.809
          ],
          [
            15.977738,
            45.808884
          ],
          [
            15.977738,
            45.808884
          ],
          [
            15.977767,
            45.808893
          ],
          [
            15.977886,
            45.80802
          ],
          [
            15.977907,
            45.807543
          ],
          [
            15.977924,
            45.806963
          ],
          [
            15.977972,
            45.806353
          ],
          [
            15.977981,
            45.806241
          ],
          [
            15.977993,
            45.806155
          ],
          [
            15.978003,
            45.805823
          ],
          [
            15.978008,
            45.805608
          ],
          [
            15.978028,
            45.805352
          ],
          [
            15.978072,
            45.805281
          ],
          [
            15.978164,
            45.805229
          ],
          [
            15.978238,
            45.805206
          ],
          [
            15.979258,
            45.805259
          ],
          [
            15.979272,
            45.805218
          ],
          [
            15.979272,
            45.805218
          ],
          [
            15.979295,
            45.805254
          ],
          [
            15.979498,
            45.805265
          ],
          [
            15.980968,
            45.805346
          ],
          [
            15.982573,
            45.805435
          ],
          [
            15.983386,
            45.805465
          ],
          [
            15.983714,
            45.80549
          ],
          [
            15.983765,
            45.805438
          ],
          [
            15.983765,
            45.805438
          ],
          [
            15.983974,
            45.805506
          ],
          [
            15.984965,
            45.805563
          ],
          [
            15.986119,
            45.805617
          ],
          [
            15.987264,
            45.805691
          ],
          [
            15.988584,
            45.805761
          ],
          [
            15.989563,
            45.805814
          ],
          [
            15.990475,
            45.805914
          ],
          [
            15.991976,
            45.80614
          ],
          [
            15.991976,
            45.80614
          ],
          [
            15.992214,
            45.806179
          ],
          [
            15.992349,
            45.806186
          ],
          [
            15.992463,
            45.806163
          ],
          [
            15.992518,
            45.806123
          ],
          [
            15.993914,
            45.803723
          ],
          [
            15.993914,
            45.803723
          ],
          [
            15.993875,
            45.803773
          ],
          [
            15.993967,
            45.803631
          ],
          [
            15.995143,
            45.801579
          ],
          [
            15.995535,
            45.800908
          ],
          [
            15.995641,
            45.800718
          ],
          [
            15.995892,
            45.800391
          ],
          [
            15.995892,
            45.800391
          ],
          [
            15.99631,
            45.799853
          ],
          [
            15.998225,
            45.797399
          ],
          [
            15.998659,
            45.796872
          ],
          [
            15.998659,
            45.796872
          ],
          [
            15.998761,
            45.796676
          ],
          [
            16.001831,
            45.792731
          ],
          [
            16.00193,
            45.792614
          ],
          [
            16.002076,
            45.792431
          ],
          [
            16.002163,
            45.792315
          ],
          [
            16.002189,
            45.792272
          ],
          [
            16.002182,
            45.792241
          ],
          [
            16.002182,
            45.792241
          ],
          [
            16.002267,
            45.792164
          ],
          [
            16.002329,
            45.792065
          ],
          [
            16.003364,
            45.790714
          ],
          [
            16.003505,
            45.790551
          ],
          [
            16.003798,
            45.790095
          ],
          [
            16.003872,
            45.78989
          ],
          [
            16.003997,
            45.789633
          ],
          [
            16.004085,
            45.789393
          ],
          [
            16.004186,
            45.788957
          ],
          [
            16.004206,
            45.788572
          ],
          [
            16.004206,
            45.788572
          ],
          [
            16.004224,
            45.788355
          ],
          [
            16.004197,
            45.787944
          ],
          [
            16.004121,
            45.787454
          ],
          [
            16.004103,
            45.787398
          ],
          [
            16.004089,
            45.787348
          ],
          [
            16.003897,
            45.786882
          ],
          [
            16.003874,
            45.786846
          ],
          [
            16.003754,
            45.786623
          ],
          [
            16.003471,
            45.786117
          ],
          [
            16.003324,
            45.785839
          ],
          [
            16.003115,
            45.785492
          ],
          [
            16.00302,
            45.785349
          ],
          [
            16.002467,
            45.784381
          ],
          [
            16.0024,
            45.784247
          ],
          [
            16.002285,
            45.784082
          ],
          [
            16.001937,
            45.783481
          ],
          [
            16.001804,
            45.78326
          ],
          [
            16.001498,
            45.782627
          ],
          [
            16.00139,
            45.782402
          ],
          [
            16.001335,
            45.782254
          ],
          [
            16.001291,
            45.78215
          ],
          [
            16.001275,
            45.782048
          ],
          [
            16.001282,
            45.781892
          ],
          [
            16.001282,
            45.781892
          ],
          [
            16.001255,
            45.781662
          ],
          [
            16.00124,
            45.781436
          ],
          [
            16.001226,
            45.781205
          ],
          [
            16.00124,
            45.780976
          ],
          [
            16.001268,
            45.780803
          ],
          [
            16.001293,
            45.780702
          ],
          [
            16.001358,
            45.780421
          ],
          [
            16.001594,
            45.779674
          ],
          [
            16.001814,
            45.779014
          ],
          [
            16.001853,
            45.778963
          ],
          [
            16.001853,
            45.778963
          ],
          [
            16.001838,
            45.778913
          ],
          [
            16.001875,
            45.778817
          ],
          [
            16.001934,
            45.778699
          ],
          [
            16.001962,
            45.77861
          ],
          [
            16.001955,
            45.778494
          ],
          [
            16.001896,
            45.778334
          ],
          [
            16.001742,
            45.778226
          ],
          [
            16.001643,
            45.778161
          ],
          [
            16.001454,
            45.77811
          ],
          [
            16.000917,
            45.7781
          ],
          [
            15.999799,
            45.778074
          ],
          [
            15.999799,
            45.778074
          ],
          [
            15.998718,
            45.778043
          ],
          [
            15.996564,
            45.777992
          ],
          [
            15.995799,
            45.777982
          ],
          [
            15.995799,
            45.777982
          ],
          [
            15.994771,
            45.777943
          ],
          [
            15.992682,
            45.777889
          ],
          [
            15.990536,
            45.777824
          ],
          [
            15.989539,
            45.777801
          ],
          [
            15.989331,
            45.777817
          ],
          [
            15.989331,
            45.777817
          ],
          [
            15.989056,
            45.77779
          ],
          [
            15.987409,
            45.777746
          ],
          [
            15.985536,
            45.777695
          ],
          [
            15.985389,
            45.777696
          ],
          [
            15.984999,
            45.777686
          ],
          [
            15.984711,
            45.777667
          ],
          [
            15.984619,
            45.777719
          ]
        ]
      },
      "properties": {}
    }
  ]
}