{
  "type": "FeatureCollection",
  "features": [
    {
      "type": "Feature",
      "geometry": {
        "type": "LineString",
        "coordinates": [
          [
            16.01882,
            45.814549
          ],
          [
            16.018643,
            45.81458
          ],
          [
            16.018509,
            45.81458
          ],
          [
            16.018266,
            45.814535
          ],
          [
            16.017886,
            45.814465
          ],
          [
            16.017324,
            45.814375
          ],
          [
            16.017156,
            45.814398
          ],
          [
            16.01658,
            45.814627
          ],
          [
            16.015828,
            45.814888
          ],
          [
            16.014573,
            45.815179
          ],
          [
            16.013487,
            45.81535
          ],
          [
            16.01333,
            45.815404
          ],
          [
            16.01333,
            45.815404
          ],
          [
            16.013338,
            45.81539
          ],
          [
            16.013223,
            45.815406
          ],
          [
            16.012048,
            45.815466
          ],
          [
            16.011152,
            45.815467
          ],
          [
            16.01103,
            45.815464
          ],
          [
            16.01053,
            45.815443
          ],
          [
            16.010242,
            45.815418
          ],
          [
            16.010104,
            45.815405
          ],
          [
            16.009812,
            45.815374
          ],
          [
            16.009611,
            45.815324
          ],
          [
            16.009164,
            45.815212
          ],
          [
            16.008614,
            45.815022
          ],
          [
            16.008614,
            45.815022
          ],
          [
            16.007581,
            45.814523
          ],
          [
            16.006391,
            45.813981
          ],
          [
            16.005134,
            45.813481
          ],
          [
            16.004745,
            45.81334
          ],
          [
            16.004745,
            45.81334
          ],
          [
            16.003732,
            45.812949
          ],
          [
            16.002609,
            45.812541
          ],
          [
            16.000421,
            45.811839
          ],
          [
            15.999339,
            45.811529
          ],
          [
            15.999339,
            45.811529
          ],
          [
            15.99863,
            45.811348
          ],
          [
            15.997723,
            45.81113
          ],
          [
            15.997723,
            45.81113
          ],
          [
            15.996157,
            45.810809
          ],
          [
            15.995434,
            45.810676
          ],
          [
            15.993893,
            45.810442
          ],
          [
            15.992893,
            45.810315
          ],
          [
            15.992276,
            45.810265
          ],
          [
            15.992276,
            45.810265
          ],
          [
            15.991956,
            45.810225
          ],
          [
            15.990913,
            45.810136
          ],
          [
            15.989849,
            45.81007
          ],
          [
            15.989068,
            45.810049
          ],
          [
            15.988361,
            45.810017
          ],
          [
            15.988361,
            45.810017
          ],
          [
            15.988202,
            45.81002
          ],
          [
            15.988111,
            45.810071
          ],
          [
            15.988065,
            45.810097
          ],
          [
            15.988049,
            45.810177
          ],
          [
            15.988037,
            45.810276
          ],
          [
            15.988021,
            45.810357
          ],
          [
            15.987989,
            45.810432
          ],
          [
            15.987888,
            45.810498
          ],
          [
            15.987623,
            45.810509
          ],
          [
            15.986838,
            45.810482
          ],
          [
            15.98646,
            45.810463
          ],
          [
            15.985386,
            45.811092
          ],
          [
            15.984231,
            45.811805
          ],
          [
            15.984231,
            45.811805
          ],
          [
            15.983662,
            45.81215
          ],
          [
            15.98347,
            45.812183
          ],
          [
            15.982722,
            45.812228
          ],
          [
            15.981342,
            45.812316
          ],
          [
            15.979626,
            45.812444
          ],
          [
            15.979267,
            45.812449
          ],
          [
            15.978928,
            45.812482
          ],
          [
            15.978714,
            45.812525
          ],
          [
            15.978297,
            45.812655
          ],
          [
            15.978223,
            45.812672
          ],
          [
            15.977366,
            45.812901
          ],
          [
            15.976493,
            45.813035
          ],
          [
            15.976546,
            45.813027
          ],
          [
            15.976611,
            45.813013
          ],
          [
            15.97662,
            45.813011
          ],
          [
            15.976341,
            45.813056
          ],
          [
            15.976235,
            45.813064
          ],
          [
            15.975502,
            45.813075
          ],
          [
            15.974553,
            45.813077
          ],
          [
            15.97311,
            45.81318
          ],
          [
            15.97132,
            45.813234
          ],
          [
            15.970426,
            45.813286
          ],
          [
            15.969562,
            45.813303
          ],
          [
            15.968627,
            45.81327
          ],
          [
            15.968627,
            45.81327
          ],
          [
            15.968496,
            45.813275
          ],
          [
            15.96809,
            45.81326
          ],
          [
            15.967519,
            45.813184
          ],
          [
            15.966791,
            45.813071
          ],
          [
            15.965849,
            45.812831
          ],
          [
            15.965836,
            45.812833
          ],
          [
            15.964841,
            45.812588
          ],
          [
            15.964698,
            45.812511
          ],
          [
            15.964726,
            45.812423
          ],
          [
            15.964726,
            45.812423
          ],
          [
            15.964714,
            45.812521
          ],
          [
            15.964636,
            45.812526
          ],
          [
            15.964242,
            45.812412
          ],
          [
            15.963987,
            45.812369
          ],
          [
            15.963676,
            45.812309
          ],
          [
            15.963494,
            45.812288
          ],
          [
            15.963311,
            45.812301
          ],
          [
            15.962634,
            45.812408
          ],
          [
            15.961766,
            45.812593
          ],
          [
            15.96066,
            45.812837
          ],
          [
            15.960229,
            45.812923
          ],
          [
            15.959531,
            45.813052
          ],
          [
            15.95917,
            45.813096
          ],
          [
            15.958818,
            45.813132
          ],
          [
            15.958594,
            45.813143
          ],
          [
            15.957786,
            45.813171
          ],
          [
            15.957786,
            45.813171
          ],
          [
            15.957514,
            45.813157
          ],
          [
            15.957428,
            45.813091
          ],
          [
            15.95732,
            45.812217
          ],
          [
            15.957208,
            45.811246
          ],
          [
            15.957123,
            45.810589
          ],
          [
            15.957058,
            45.809956
          ],
          [
            15.957095,
            45.809672
          ],
          [
            15.957095,
            45.809672
          ],
          [
            15.956969,
            45.809475
          ],
          [
            15.956891,
            45.809388
          ],
          [
            15.956398,
            45.809392
          ],
          [
            15.954974,
            45.809472
          ],
          [
            15.9549,
            45.809483
          ],
          [
            15.954829,
            45.809488
          ]
        ]
      },
      "properties": {}
    }
  ]
}